{"type":"FeatureCollection","features":[{"type":"Feature","properties":{"level":1,"classification":"low"},"geometry":{"type":"MultiPolygon","coordinates":[[[[123.883864,9.625468],[123.883864,9.625572],[123.884046,9.625572],[123.884046,9.62547],[123.883864,9.625468]]],[[[123.879492,9.626669],[123.879493,9.62685],[123.879675,9.626849],[123.879675,9.626668],[123.879492,9.626669]]],[[[123.877307,9.627398],[123.877308,9.627579],[123.87749,9.627578],[123.877489,9.627397],[123.877307,9.627398]]],[[[123.875122,9.628127],[123.875122,9.628308],[123.875304,9.628307],[123.875304,9.628126],[123.875122,9.628127]]],[[[123.873486,9.629759],[123.873486,9.62994],[123.873668,9.629939],[123.873668,9.629758],[123.873486,9.629759]]],[[[123.872577,9.630666],[123.872577,9.630847],[123.872942,9.630846],[123.872941,9.630665],[123.872577,9.630666]]],[[[123.871483,9.630849],[123.871484,9.63103],[123.871666,9.63103],[123.871666,9.630849],[123.871483,9.630849]]],[[[123.86519,9.63389],[123.865152,9.63394],[123.865294,9.63394],[123.865294,9.63384],[123.86519,9.63389]]],[[[123.863186,9.634849],[123.863292,9.634849],[123.863291,9.634767],[123.863186,9.634849]]],[[[123.861471,9.635534],[123.861471,9.635577],[123.861653,9.635577],[123.861653,9.635513],[123.861471,9.635534]]],[[[123.860969,9.635603],[123.860924,9.635579],[123.860924,9.635759],[123.861107,9.635759],[123.861106,9.635578],[123.860969,9.635603]]],[[[123.860091,9.63602],[123.860051,9.635942],[123.860013,9.635943],[123.860014,9.636123],[123.860196,9.636123],[123.860196,9.636006],[123.860091,9.63602]]],[[[123.859649,9.636124],[123.85965,9.636305],[123.859832,9.636305],[123.859829,9.636124],[123.859649,9.636124]]],[[[123.856008,9.637761],[123.856009,9.637942],[123.856191,9.637942],[123.85619,9.637761],[123.856008,9.637761]]],[[[123.854009,9.639937],[123.854009,9.640118],[123.854191,9.640117],[123.854191,9.639936],[123.854009,9.639937]]],[[[123.85365,9.64247],[123.853651,9.642651],[123.853833,9.64265],[123.853833,9.642469],[123.85365,9.64247]]],[[[123.853469,9.643013],[123.85347,9.643194],[123.853652,9.643193],[123.853652,9.643013],[123.853469,9.643013]]],[[[123.852946,9.6441],[123.852926,9.64428],[123.853108,9.64428],[123.853108,9.644099],[123.852946,9.6441]]],[[[123.852563,9.645005],[123.852564,9.645186],[123.852746,9.645185],[123.852745,9.645004],[123.852563,9.645005]]],[[[123.852018,9.64573],[123.852019,9.645911],[123.852201,9.64591],[123.8522,9.645729],[123.852018,9.64573]]],[[[123.85093,9.647903],[123.85093,9.648084],[123.851113,9.648083],[123.851112,9.647902],[123.85093,9.647903]]],[[[123.84975,9.650438],[123.849664,9.650619],[123.849843,9.650619],[123.849843,9.650438],[123.84975,9.650438]]],[[[123.848027,9.653156],[123.848027,9.653336],[123.848209,9.653336],[123.848209,9.653155],[123.848027,9.653156]]],[[[123.845997,9.658225],[123.845905,9.658406],[123.846035,9.658406],[123.846034,9.658225],[123.845997,9.658225]]],[[[123.845671,9.658949],[123.845672,9.65913],[123.845854,9.65913],[123.845854,9.658949],[123.845671,9.658949]]],[[[123.845672,9.659311],[123.845673,9.659492],[123.845855,9.659492],[123.845855,9.659311],[123.845672,9.659311]]],[[[123.84457,9.663818],[123.844551,9.663836],[123.84459,9.663836],[123.84459,9.663788],[123.84457,9.663818]]],[[[123.844408,9.663836],[123.844429,9.663836],[123.844418,9.663831],[123.844408,9.663836]]],[[[123.844228,9.664922],[123.844228,9.665103],[123.844593,9.665102],[123.844593,9.664921],[123.844228,9.664922]]],[[[123.844775,9.665101],[123.844776,9.665282],[123.844958,9.665282],[123.844958,9.665101],[123.844775,9.665101]]],[[[123.844959,9.665644],[123.844959,9.665824],[123.845142,9.665824],[123.845141,9.665643],[123.844959,9.665644]]],[[[123.844232,9.666369],[123.844232,9.66655],[123.844414,9.666549],[123.844414,9.666368],[123.844232,9.666369]]],[[[123.844964,9.667633],[123.844964,9.667814],[123.845147,9.667814],[123.845146,9.667633],[123.844964,9.667633]]],[[[123.845148,9.668175],[123.845148,9.668356],[123.84533,9.668356],[123.84533,9.668175],[123.845148,9.668175]]],[[[123.845695,9.668536],[123.845696,9.668717],[123.845878,9.668716],[123.845878,9.668535],[123.845695,9.668536]]],[[[123.84606,9.668716],[123.846061,9.668897],[123.846243,9.668896],[123.846243,9.668715],[123.84606,9.668716]]],[[[123.846609,9.669257],[123.846609,9.669438],[123.846791,9.669437],[123.846791,9.669257],[123.846609,9.669257]]],[[[123.850262,9.672142],[123.850262,9.672323],[123.850444,9.672322],[123.850444,9.672142],[123.850262,9.672142]]],[[[123.859742,9.672842],[123.859743,9.673023],[123.859925,9.673022],[123.859925,9.672841],[123.859742,9.672842]]],[[[123.858283,9.672484],[123.858285,9.673207],[123.858467,9.673207],[123.858466,9.672845],[123.858831,9.672844],[123.858831,9.672663],[123.859742,9.672661],[123.859742,9.67248],[123.858283,9.672484]]],[[[123.859562,9.673385],[123.859562,9.673566],[123.859927,9.673565],[123.859926,9.673384],[123.859562,9.673385]]],[[[123.85938,9.673566],[123.859197,9.673567],[123.859198,9.673748],[123.85938,9.673747],[123.85938,9.673566]]],[[[123.859016,9.673929],[123.859198,9.673929],[123.859198,9.673748],[123.859016,9.673748],[123.859016,9.673929]]],[[[123.857557,9.673752],[123.857558,9.673933],[123.85774,9.673932],[123.85774,9.673751],[123.857557,9.673752]]],[[[123.858652,9.67393],[123.858652,9.674111],[123.858834,9.67411],[123.858834,9.673929],[123.858652,9.67393]]],[[[123.857193,9.673934],[123.857011,9.673934],[123.857011,9.674115],[123.857194,9.674114],[123.857193,9.673934]]],[[[123.85683,9.674296],[123.857012,9.674296],[123.857011,9.674115],[123.856829,9.674115],[123.85683,9.674296]]],[[[123.856648,9.674478],[123.85683,9.674477],[123.85683,9.674296],[123.856647,9.674297],[123.856648,9.674478]]],[[[123.851179,9.67431],[123.851179,9.674672],[123.851362,9.674672],[123.851361,9.67431],[123.851179,9.67431]]],[[[123.858471,9.674654],[123.858472,9.674835],[123.858654,9.674834],[123.858653,9.674653],[123.858471,9.674654]]],[[[123.858108,9.675197],[123.858108,9.675378],[123.858291,9.675378],[123.85829,9.675197],[123.858108,9.675197]]],[[[123.85665,9.675201],[123.85665,9.675382],[123.856832,9.675381],[123.856832,9.675201],[123.85665,9.675201]]],[[[123.856833,9.675562],[123.856834,9.675924],[123.857016,9.675924],[123.857015,9.675562],[123.856833,9.675562]]],[[[123.851001,9.676119],[123.851001,9.6763],[123.851184,9.6763],[123.851183,9.676119],[123.851001,9.676119]]],[[[123.851005,9.677928],[123.851006,9.678109],[123.851188,9.678109],[123.851188,9.677928],[123.851005,9.677928]]],[[[123.856655,9.677552],[123.856657,9.678276],[123.85684,9.678275],[123.856838,9.677552],[123.856655,9.677552]]],[[[123.856476,9.678638],[123.856476,9.678819],[123.856659,9.678819],[123.856658,9.678638],[123.856476,9.678638]]],[[[123.858117,9.678996],[123.858118,9.679177],[123.8583,9.679176],[123.8583,9.678995],[123.858117,9.678996]]],[[[123.858118,9.679357],[123.858119,9.679538],[123.858301,9.679538],[123.858301,9.679357],[123.858118,9.679357]]],[[[123.856295,9.679181],[123.856296,9.679724],[123.856479,9.679723],[123.856477,9.679181],[123.856295,9.679181]]],[[[123.858484,9.679718],[123.858485,9.68008],[123.858667,9.68008],[123.858666,9.679718],[123.858484,9.679718]]],[[[123.858851,9.680622],[123.858851,9.680803],[123.859034,9.680802],[123.859033,9.680621],[123.858851,9.680622]]],[[[123.852836,9.680999],[123.852836,9.681179],[123.853019,9.681179],[123.853018,9.680998],[123.852836,9.680999]]],[[[123.859581,9.681163],[123.859582,9.681343],[123.859764,9.681343],[123.859764,9.681162],[123.859581,9.681163]]],[[[123.856665,9.68117],[123.856665,9.681351],[123.856847,9.68135],[123.856847,9.681169],[123.856665,9.68117]]],[[[123.853019,9.68136],[123.85302,9.681541],[123.853202,9.68154],[123.853202,9.681359],[123.853019,9.68136]]],[[[123.856848,9.681712],[123.857213,9.681711],[123.857212,9.68153],[123.85703,9.681531],[123.85703,9.68135],[123.856847,9.68135],[123.856848,9.681712]]],[[[123.859583,9.681705],[123.859583,9.681886],[123.859765,9.681886],[123.859765,9.681705],[123.859583,9.681705]]],[[[123.857396,9.681892],[123.857396,9.682072],[123.857578,9.682072],[123.857578,9.681891],[123.857396,9.681892]]],[[[123.857943,9.682071],[123.857943,9.682252],[123.858126,9.682251],[123.858125,9.682071],[123.857943,9.682071]]],[[[123.853386,9.682082],[123.853386,9.682263],[123.853568,9.682263],[123.853568,9.682082],[123.853386,9.682082]]],[[[123.859584,9.682248],[123.859585,9.682429],[123.859767,9.682428],[123.859766,9.682247],[123.859584,9.682248]]],[[[123.858308,9.682432],[123.858308,9.682251],[123.858126,9.682251],[123.858126,9.682432],[123.858308,9.682432]]],[[[123.859767,9.682609],[123.859768,9.68279],[123.85995,9.68279],[123.85995,9.682609],[123.859767,9.682609]]],[[[123.857397,9.682615],[123.857215,9.682616],[123.857216,9.682796],[123.857398,9.682796],[123.857397,9.682615]]],[[[123.857034,9.683159],[123.857217,9.683158],[123.857216,9.682796],[123.857033,9.682797],[123.857034,9.683159]]],[[[123.859951,9.683332],[123.859952,9.683513],[123.860134,9.683513],[123.860134,9.683332],[123.859951,9.683332]]],[[[123.857946,9.683337],[123.857947,9.683518],[123.858129,9.683518],[123.858129,9.683337],[123.857946,9.683337]]],[[[123.859952,9.683694],[123.859953,9.683875],[123.860135,9.683874],[123.860135,9.683693],[123.859952,9.683694]]],[[[123.857948,9.68388],[123.857948,9.684061],[123.85813,9.68406],[123.85813,9.683879],[123.857948,9.68388]]],[[[123.857766,9.684242],[123.857767,9.684423],[123.857949,9.684422],[123.857949,9.684242],[123.857766,9.684242]]],[[[123.859407,9.684419],[123.859408,9.6846],[123.85959,9.684599],[123.85959,9.684418],[123.859407,9.684419]]],[[[123.854487,9.685155],[123.854488,9.685335],[123.85467,9.685335],[123.854669,9.685154],[123.854487,9.685155]]],[[[123.857769,9.685146],[123.857769,9.685508],[123.857952,9.685508],[123.857951,9.685146],[123.857769,9.685146]]],[[[123.859045,9.685505],[123.859046,9.685686],[123.859228,9.685685],[123.859228,9.685504],[123.859045,9.685505]]],[[[123.85467,9.685516],[123.854671,9.685697],[123.854853,9.685696],[123.854853,9.685515],[123.85467,9.685516]]],[[[123.855036,9.686058],[123.855037,9.686238],[123.855219,9.686238],[123.855219,9.686057],[123.855036,9.686058]]],[[[123.859412,9.686408],[123.859413,9.686589],[123.859595,9.686589],[123.859595,9.686408],[123.859412,9.686408]]],[[[123.85522,9.686419],[123.85522,9.6866],[123.855402,9.686599],[123.855402,9.686418],[123.85522,9.686419]]],[[[123.855403,9.68678],[123.855403,9.686961],[123.855586,9.686961],[123.855585,9.68678],[123.855403,9.68678]]],[[[123.855768,9.68696],[123.855768,9.687141],[123.855951,9.687141],[123.85595,9.68696],[123.855768,9.68696]]],[[[123.857954,9.686593],[123.857956,9.687316],[123.858139,9.687316],[123.858137,9.686592],[123.857954,9.686593]]],[[[123.857226,9.686957],[123.857227,9.687137],[123.857044,9.687138],[123.857045,9.687319],[123.857409,9.687318],[123.857409,9.686956],[123.857226,9.686957]]],[[[123.856133,9.687321],[123.856133,9.68714],[123.855951,9.687141],[123.855951,9.687321],[123.856133,9.687321]]],[[[123.859597,9.687312],[123.859597,9.687493],[123.85978,9.687493],[123.859779,9.687312],[123.859597,9.687312]]],[[[123.859781,9.687854],[123.859781,9.688035],[123.859963,9.688035],[123.859963,9.687854],[123.859781,9.687854]]],[[[123.857958,9.687859],[123.857958,9.68804],[123.85814,9.688039],[123.85814,9.687859],[123.857958,9.687859]]],[[[123.856682,9.687862],[123.856682,9.688043],[123.856864,9.688043],[123.856864,9.687862],[123.856682,9.687862]]],[[[123.858323,9.688039],[123.858323,9.68822],[123.858506,9.688219],[123.858505,9.688039],[123.858323,9.688039]]],[[[123.857229,9.688042],[123.857229,9.688223],[123.857594,9.688222],[123.857594,9.688041],[123.857229,9.688042]]],[[[123.859964,9.688216],[123.859964,9.688397],[123.860147,9.688396],[123.860146,9.688215],[123.859964,9.688216]]],[[[123.858688,9.6884],[123.858688,9.688219],[123.858506,9.688219],[123.858506,9.6884],[123.858688,9.6884]]],[[[123.860329,9.688577],[123.860329,9.688396],[123.860147,9.688396],[123.860147,9.688577],[123.860329,9.688577]]],[[[123.86033,9.688757],[123.86033,9.688938],[123.860513,9.688938],[123.860512,9.688757],[123.86033,9.688757]]],[[[123.856137,9.688949],[123.856138,9.68913],[123.85632,9.689129],[123.85632,9.688948],[123.856137,9.688949]]],[[[123.860695,9.689118],[123.860696,9.689299],[123.860878,9.689299],[123.860878,9.689118],[123.860695,9.689118]]],[[[123.859235,9.688398],[123.858871,9.688399],[123.858871,9.68858],[123.859053,9.68858],[123.859055,9.689303],[123.859237,9.689303],[123.859235,9.688398]]],[[[123.861061,9.689479],[123.86106,9.689298],[123.860878,9.689299],[123.860879,9.68948],[123.861061,9.689479]]],[[[123.856503,9.68931],[123.856503,9.689491],[123.856686,9.68949],[123.856685,9.689309],[123.856503,9.68931]]],[[[123.861061,9.68966],[123.861062,9.689841],[123.861244,9.68984],[123.861244,9.68966],[123.861061,9.68966]]],[[[123.861245,9.690021],[123.861245,9.690202],[123.861427,9.690202],[123.861427,9.690021],[123.861245,9.690021]]],[[[123.86161,9.690382],[123.861428,9.690383],[123.861429,9.690744],[123.861611,9.690744],[123.86161,9.690382]]],[[[123.861794,9.690924],[123.861793,9.690743],[123.861611,9.690744],[123.861611,9.690925],[123.861794,9.690924]]],[[[123.859788,9.690748],[123.859788,9.690929],[123.859971,9.690929],[123.85997,9.690748],[123.859788,9.690748]]],[[[123.858876,9.690389],[123.859058,9.690389],[123.859056,9.689484],[123.858873,9.689485],[123.858875,9.690208],[123.858693,9.690209],[123.858695,9.690932],[123.858877,9.690932],[123.858876,9.690389]]],[[[123.859607,9.691111],[123.859606,9.69093],[123.858877,9.690932],[123.858877,9.691113],[123.859607,9.691111]]],[[[123.857888,9.691086],[123.857889,9.691266],[123.858071,9.691266],[123.858071,9.691085],[123.857888,9.691086]]],[[[123.856507,9.691048],[123.856467,9.691048],[123.85649,9.69108],[123.856469,9.691121],[123.856404,9.691105],[123.856325,9.691128],[123.856326,9.691481],[123.856508,9.69148],[123.856507,9.691048]]],[[[123.856326,9.691591],[123.856327,9.691772],[123.856509,9.691772],[123.856509,9.691591],[123.856326,9.691591]]],[[[123.862447,9.691617],[123.862448,9.691798],[123.86263,9.691797],[123.86263,9.691616],[123.862447,9.691617]]],[[[123.858072,9.691628],[123.85789,9.691628],[123.85789,9.691809],[123.858073,9.691809],[123.858072,9.691628]]],[[[123.857708,9.69199],[123.857891,9.69199],[123.85789,9.691809],[123.857708,9.69181],[123.857708,9.69199]]],[[[123.860338,9.691832],[123.860335,9.690928],[123.860153,9.690928],[123.860156,9.692014],[123.86052,9.692013],[123.86052,9.691832],[123.860338,9.691832]]],[[[123.856509,9.691842],[123.85651,9.692023],[123.856692,9.692022],[123.856692,9.691841],[123.856509,9.691842]]],[[[123.86263,9.691978],[123.862631,9.692159],[123.862813,9.692158],[123.862813,9.691978],[123.86263,9.691978]]],[[[123.857526,9.691991],[123.857344,9.691991],[123.857344,9.692172],[123.857527,9.692172],[123.857526,9.691991]]],[[[123.860521,9.692194],[123.860886,9.692193],[123.860885,9.692012],[123.86125,9.692011],[123.861249,9.69183],[123.861614,9.691829],[123.861613,9.691648],[123.86216,9.691647],[123.862159,9.691285],[123.861977,9.691286],[123.861977,9.691105],[123.861794,9.691105],[123.861795,9.691467],[123.861431,9.691468],[123.861431,9.691649],[123.861066,9.69165],[123.861067,9.691831],[123.860702,9.691831],[123.860703,9.692012],[123.86052,9.692013],[123.860521,9.692194]]],[[[123.862815,9.692701],[123.863179,9.6927],[123.86318,9.692881],[123.863362,9.692881],[123.863361,9.692519],[123.863179,9.692519],[123.863178,9.692338],[123.862996,9.692339],[123.862996,9.692158],[123.862813,9.692158],[123.862815,9.692701]]],[[[123.863544,9.69288],[123.863545,9.693061],[123.863727,9.693061],[123.863727,9.69288],[123.863544,9.69288]]],[[[123.863909,9.69306],[123.86391,9.693241],[123.864092,9.693241],[123.864092,9.69306],[123.863909,9.69306]]],[[[123.855966,9.69322],[123.855966,9.693401],[123.856149,9.693401],[123.856148,9.69322],[123.855966,9.69322]]],[[[123.864457,9.69342],[123.864458,9.693601],[123.86464,9.693601],[123.864639,9.69342],[123.864457,9.69342]]],[[[123.864823,9.693781],[123.864822,9.6936],[123.86464,9.693601],[123.86464,9.693782],[123.864823,9.693781]]],[[[123.855967,9.693582],[123.855785,9.693582],[123.855785,9.693763],[123.85589,9.693763],[123.85589,9.693804],[123.856072,9.693803],[123.856072,9.693622],[123.855967,9.693623],[123.855967,9.693582]]],[[[123.85651,9.692174],[123.85651,9.692134],[123.856406,9.692134],[123.856328,9.692315],[123.856433,9.692315],[123.856433,9.692385],[123.856328,9.692385],[123.856329,9.692566],[123.856434,9.692566],[123.856435,9.692898],[123.85633,9.692898],[123.856329,9.692677],[123.856147,9.692677],[123.856148,9.693109],[123.856253,9.693109],[123.856254,9.693441],[123.856071,9.693442],[123.856072,9.693622],[123.856254,9.693622],[123.856255,9.693803],[123.856437,9.693802],[123.856437,9.693983],[123.85662,9.693983],[123.856618,9.69344],[123.856801,9.69344],[123.8568,9.693078],[123.856982,9.693077],[123.856981,9.692716],[123.856799,9.692716],[123.856798,9.692535],[123.856981,9.692535],[123.85698,9.692354],[123.857345,9.692353],[123.857344,9.692172],[123.85651,9.692174]]],[[[123.860448,9.693973],[123.860448,9.694154],[123.860813,9.694153],[123.860813,9.693972],[123.860448,9.693973]]],[[[123.860813,9.694153],[123.860813,9.694334],[123.860996,9.694334],[123.860995,9.694153],[123.860813,9.694153]]],[[[123.860267,9.694516],[123.860449,9.694516],[123.860448,9.694154],[123.860266,9.694155],[123.860267,9.694516]]],[[[123.861543,9.694513],[123.861544,9.694694],[123.861908,9.694693],[123.861908,9.694512],[123.861543,9.694513]]],[[[123.855892,9.694527],[123.855892,9.694708],[123.856075,9.694708],[123.856074,9.694527],[123.855892,9.694527]]],[[[123.862091,9.694873],[123.862091,9.694693],[123.861908,9.694693],[123.861909,9.694874],[123.862091,9.694873]]],[[[123.860997,9.694876],[123.861362,9.694875],[123.861361,9.694694],[123.861179,9.694695],[123.861178,9.694333],[123.860996,9.694334],[123.860997,9.694876]]],[[[123.860268,9.694697],[123.860085,9.694698],[123.860086,9.694878],[123.860268,9.694878],[123.860268,9.694697]]],[[[123.862091,9.695054],[123.862092,9.695235],[123.862274,9.695235],[123.862274,9.695054],[123.862091,9.695054]]],[[[123.865191,9.695227],[123.865191,9.695408],[123.865374,9.695408],[123.865373,9.695227],[123.865191,9.695227]]],[[[123.862276,9.695777],[123.862277,9.696139],[123.862459,9.696139],[123.862458,9.695777],[123.862276,9.695777]]],[[[123.859904,9.695241],[123.859722,9.695241],[123.859722,9.695422],[123.859905,9.695422],[123.859906,9.695783],[123.860088,9.695783],[123.860089,9.696325],[123.859178,9.696328],[123.859177,9.696147],[123.858995,9.696147],[123.858995,9.695966],[123.85863,9.695967],[123.85863,9.696148],[123.858813,9.696148],[123.858813,9.696329],[123.858996,9.696328],[123.858996,9.696509],[123.860272,9.696506],[123.86027,9.695782],[123.860453,9.695782],[123.860452,9.695601],[123.860634,9.695601],[123.860634,9.69542],[123.860087,9.695421],[123.860086,9.694878],[123.859903,9.694879],[123.859904,9.695241]]],[[[123.862278,9.696863],[123.862279,9.697043],[123.862461,9.697043],[123.862461,9.696862],[123.862278,9.696863]]],[[[123.862099,9.698129],[123.8621,9.69831],[123.862282,9.69831],[123.862282,9.698129],[123.862099,9.698129]]],[[[123.858447,9.695787],[123.858445,9.694883],[123.858263,9.694883],[123.858262,9.694521],[123.858079,9.694522],[123.858079,9.694341],[123.857532,9.694342],[123.857534,9.695247],[123.857352,9.695247],[123.857353,9.695428],[123.85717,9.695428],[123.857171,9.695609],[123.856988,9.69561],[123.856989,9.695791],[123.856807,9.695791],[123.856806,9.69561],[123.856624,9.695611],[123.856621,9.694706],[123.856439,9.694707],[123.85644,9.695068],[123.856258,9.695069],[123.856257,9.694888],[123.856075,9.694889],[123.856076,9.69525],[123.856258,9.69525],[123.856262,9.696878],[123.85608,9.696878],[123.856084,9.698325],[123.856631,9.698324],[123.856632,9.698686],[123.857179,9.698684],[123.857178,9.698503],[123.856813,9.698504],[123.856813,9.698323],[123.856995,9.698323],[123.856995,9.698142],[123.857542,9.698141],[123.857541,9.69796],[123.857724,9.697959],[123.857723,9.697778],[123.857905,9.697778],[123.857903,9.696874],[123.858085,9.696873],[123.858085,9.696692],[123.857903,9.696693],[123.857902,9.696331],[123.857719,9.696331],[123.857716,9.695065],[123.858081,9.695064],[123.858083,9.695788],[123.858265,9.695787],[123.858265,9.695968],[123.85863,9.695967],[123.85863,9.695787],[123.858447,9.695787]],[[123.856445,9.696877],[123.856444,9.696696],[123.856627,9.696696],[123.856627,9.696877],[123.856445,9.696877]],[[123.857357,9.697237],[123.857539,9.697236],[123.857541,9.697779],[123.857359,9.697779],[123.857359,9.69796],[123.856812,9.697962],[123.856811,9.6976],[123.856993,9.697599],[123.856993,9.697238],[123.857175,9.697237],[123.857174,9.696875],[123.857356,9.696875],[123.857357,9.697237]]],[[[123.861189,9.698674],[123.86119,9.698855],[123.861372,9.698855],[123.861371,9.698674],[123.861189,9.698674]]],[[[123.859731,9.698678],[123.859731,9.698859],[123.859914,9.698858],[123.859913,9.698677],[123.859731,9.698678]]],[[[123.859184,9.698679],[123.859184,9.69886],[123.859367,9.69886],[123.859366,9.698679],[123.859184,9.698679]]],[[[123.858272,9.698681],[123.858273,9.698862],[123.858455,9.698862],[123.858455,9.698681],[123.858272,9.698681]]]]}},{"type":"Feature","properties":{"level":2,"classification":"moderate"},"geometry":{"type":"MultiPolygon","coordinates":[[[[123.883499,9.625523],[123.883499,9.625573],[123.883864,9.625572],[123.883864,9.625468],[123.883499,9.625523]]],[[[123.882041,9.625645],[123.882042,9.625758],[123.882406,9.625757],[123.882406,9.625659],[123.882041,9.625645]]],[[[123.881495,9.625777],[123.881495,9.62594],[123.881678,9.62594],[123.881677,9.625759],[123.881495,9.625777]]],[[[123.880585,9.626123],[123.880585,9.626304],[123.880767,9.626304],[123.880767,9.626123],[123.880585,9.626123]]],[[[123.88022,9.626305],[123.880221,9.626486],[123.880403,9.626486],[123.880403,9.626305],[123.88022,9.626305]]],[[[123.8799,9.626487],[123.879856,9.626511],[123.879857,9.626668],[123.880039,9.626667],[123.880039,9.626487],[123.8799,9.626487]]],[[[123.878946,9.626851],[123.878946,9.627032],[123.879129,9.627031],[123.879128,9.626851],[123.878946,9.626851]]],[[[123.8784,9.627033],[123.8784,9.627214],[123.878582,9.627214],[123.878582,9.627033],[123.8784,9.627033]]],[[[123.877853,9.627216],[123.877854,9.627396],[123.878036,9.627396],[123.878036,9.627215],[123.877853,9.627216]]],[[[123.876761,9.627687],[123.876761,9.627761],[123.876943,9.627761],[123.876943,9.627643],[123.876761,9.627687]]],[[[123.876214,9.627762],[123.876215,9.627943],[123.876397,9.627943],[123.876397,9.627762],[123.876214,9.627762]]],[[[123.875486,9.627945],[123.875486,9.628126],[123.875669,9.628126],[123.875668,9.627945],[123.875486,9.627945]]],[[[123.87494,9.628308],[123.874758,9.628309],[123.874758,9.62849],[123.87494,9.628489],[123.87494,9.628308]]],[[[123.874576,9.628671],[123.874759,9.62867],[123.874758,9.62849],[123.874576,9.62849],[123.874576,9.628671]]],[[[123.874395,9.628852],[123.874577,9.628852],[123.874576,9.628671],[123.874394,9.628671],[123.874395,9.628852]]],[[[123.874213,9.629034],[123.874395,9.629033],[123.874395,9.628852],[123.874212,9.628853],[123.874213,9.629034]]],[[[123.874031,9.629215],[123.874213,9.629214],[123.874213,9.629034],[123.87403,9.629034],[123.874031,9.629215]]],[[[123.873849,9.629396],[123.874031,9.629396],[123.874031,9.629215],[123.873849,9.629215],[123.873849,9.629396]]],[[[123.873667,9.629578],[123.87385,9.629577],[123.873849,9.629396],[123.873667,9.629397],[123.873667,9.629578]]],[[[123.873486,9.629759],[123.873668,9.629758],[123.873667,9.629578],[123.873485,9.629578],[123.873486,9.629759]]],[[[123.873304,9.630121],[123.873305,9.630302],[123.873487,9.630302],[123.873486,9.630121],[123.873304,9.630121]]],[[[123.873305,9.630483],[123.873123,9.630483],[123.873123,9.630664],[123.873306,9.630664],[123.873305,9.630483]]],[[[123.872942,9.630846],[123.873124,9.630845],[123.873123,9.630664],[123.872941,9.630665],[123.872942,9.630846]]],[[[123.87203,9.630667],[123.87203,9.630848],[123.872577,9.630847],[123.872577,9.630666],[123.87203,9.630667]]],[[[123.871301,9.63085],[123.871302,9.631031],[123.871484,9.63103],[123.871483,9.630849],[123.871301,9.63085]]],[[[123.870755,9.631032],[123.870755,9.631213],[123.870938,9.631212],[123.870937,9.631032],[123.870755,9.631032]]],[[[123.870208,9.631214],[123.870209,9.631395],[123.870391,9.631395],[123.870391,9.631214],[123.870208,9.631214]]],[[[123.869662,9.631396],[123.869663,9.631577],[123.869845,9.631577],[123.869844,9.631396],[123.869662,9.631396]]],[[[123.869298,9.631578],[123.869299,9.631759],[123.869481,9.631759],[123.86948,9.631578],[123.869298,9.631578]]],[[[123.868934,9.63176],[123.868934,9.631941],[123.869117,9.63194],[123.869116,9.63176],[123.868934,9.63176]]],[[[123.86857,9.631942],[123.86857,9.632123],[123.868753,9.632122],[123.868752,9.631941],[123.86857,9.631942]]],[[[123.86766,9.632306],[123.86766,9.632487],[123.867842,9.632486],[123.867842,9.632305],[123.86766,9.632306]]],[[[123.867295,9.632488],[123.867296,9.632669],[123.867478,9.632668],[123.867478,9.632487],[123.867295,9.632488]]],[[[123.86675,9.632851],[123.866567,9.632851],[123.866568,9.633032],[123.86675,9.633032],[123.86675,9.632851]]],[[[123.866386,9.633213],[123.866568,9.633213],[123.866568,9.633032],[123.866385,9.633033],[123.866386,9.633213]]],[[[123.866204,9.633395],[123.866386,9.633394],[123.866386,9.633213],[123.866204,9.633214],[123.866204,9.633395]]],[[[123.866022,9.633461],[123.866022,9.633398],[123.865926,9.63349],[123.865971,9.633494],[123.865998,9.63345],[123.866022,9.633461]]],[[[123.865952,9.633563],[123.865933,9.633576],[123.866022,9.633576],[123.866022,9.633518],[123.865952,9.633563]]],[[[123.865544,9.633672],[123.865476,9.633606],[123.865476,9.633758],[123.865658,9.633758],[123.865658,9.633614],[123.865544,9.633672]]],[[[123.863597,9.634658],[123.863528,9.634668],[123.863656,9.634667],[123.863656,9.634647],[123.863597,9.634658]]],[[[123.862594,9.635032],[123.862563,9.635002],[123.862563,9.635032],[123.862594,9.635032]]],[[[123.862364,9.635139],[123.862199,9.635166],[123.862199,9.635214],[123.862381,9.635213],[123.862381,9.635067],[123.862364,9.635139]]],[[[123.861926,9.635214],[123.861842,9.635326],[123.861835,9.635395],[123.862017,9.635395],[123.862017,9.635214],[123.861926,9.635214]]],[[[123.860462,9.635761],[123.860454,9.635824],[123.860378,9.635801],[123.860378,9.635942],[123.86056,9.635941],[123.86056,9.63576],[123.860462,9.635761]]],[[[123.859206,9.636601],[123.859124,9.636668],[123.859286,9.636668],[123.859286,9.636519],[123.859206,9.636601]]],[[[123.85902,9.63676],[123.85902,9.636849],[123.859104,9.636849],[123.859104,9.636686],[123.85902,9.63676]]],[[[123.858558,9.637031],[123.85874,9.637031],[123.85874,9.636977],[123.858558,9.637031]]],[[[123.858091,9.63732],[123.858078,9.63735],[123.858098,9.637394],[123.858194,9.637394],[123.858194,9.637345],[123.858091,9.63732]]],[[[123.856915,9.637675],[123.856838,9.637579],[123.85619,9.63758],[123.85619,9.637761],[123.857102,9.637759],[123.857101,9.637665],[123.856915,9.637675]]],[[[123.856008,9.637761],[123.855826,9.637762],[123.855826,9.637943],[123.856009,9.637942],[123.856008,9.637761]]],[[[123.855644,9.638124],[123.855827,9.638123],[123.855826,9.637943],[123.855644,9.637943],[123.855644,9.638124]]],[[[123.85528,9.638306],[123.855098,9.638306],[123.855099,9.638487],[123.855281,9.638487],[123.85528,9.638306]]],[[[123.854917,9.638668],[123.855099,9.638668],[123.855099,9.638487],[123.854916,9.638488],[123.854917,9.638668]]],[[[123.854008,9.639756],[123.854009,9.639937],[123.854191,9.639936],[123.85419,9.639755],[123.854008,9.639756]]],[[[123.853828,9.640661],[123.853829,9.640842],[123.854011,9.640841],[123.85401,9.64066],[123.853828,9.640661]]],[[[123.853647,9.641204],[123.85365,9.64247],[123.853833,9.642469],[123.853829,9.641203],[123.853647,9.641204]]],[[[123.853288,9.643375],[123.853289,9.643556],[123.853471,9.643556],[123.85347,9.643375],[123.853288,9.643375]]],[[[123.853107,9.643737],[123.853107,9.643918],[123.853289,9.643918],[123.853289,9.643737],[123.853107,9.643737]]],[[[123.852744,9.644281],[123.852744,9.644462],[123.852926,9.644461],[123.852926,9.64428],[123.852744,9.644281]]],[[[123.852563,9.644824],[123.852563,9.645005],[123.852745,9.645004],[123.852745,9.644824],[123.852563,9.644824]]],[[[123.852199,9.645368],[123.8522,9.645548],[123.852382,9.645548],[123.852382,9.645367],[123.852199,9.645368]]],[[[123.851837,9.646092],[123.851837,9.646273],[123.852019,9.646272],[123.852019,9.646091],[123.851837,9.646092]]],[[[123.851474,9.646816],[123.851474,9.646997],[123.851657,9.646997],[123.851656,9.646816],[123.851474,9.646816]]],[[[123.851111,9.64736],[123.851111,9.647541],[123.851294,9.64754],[123.851293,9.647359],[123.851111,9.64736]]],[[[123.850749,9.648265],[123.850749,9.648446],[123.850931,9.648446],[123.850931,9.648265],[123.850749,9.648265]]],[[[123.850568,9.648808],[123.850568,9.648989],[123.85075,9.648989],[123.85075,9.648808],[123.850568,9.648808]]],[[[123.850569,9.64917],[123.850386,9.64917],[123.850387,9.649351],[123.850569,9.649351],[123.850569,9.64917]]],[[[123.850205,9.649533],[123.850387,9.649532],[123.850387,9.649351],[123.850204,9.649352],[123.850205,9.649533]]],[[[123.849476,9.649534],[123.849476,9.649499],[123.849293,9.649479],[123.849294,9.649716],[123.849658,9.649715],[123.849658,9.649534],[123.849476,9.649534]]],[[[123.850023,9.649895],[123.850206,9.649894],[123.850205,9.649533],[123.850023,9.649533],[123.850023,9.649895]]],[[[123.849842,9.650076],[123.849842,9.650257],[123.850024,9.650257],[123.850024,9.650076],[123.849842,9.650076]]],[[[123.849543,9.6508],[123.849661,9.6508],[123.849661,9.650624],[123.849543,9.6508]]],[[[123.849116,9.651525],[123.849117,9.651706],[123.849299,9.651705],[123.849298,9.651524],[123.849116,9.651525]]],[[[123.848884,9.652068],[123.848765,9.652249],[123.848936,9.652249],[123.848935,9.652068],[123.848884,9.652068]]],[[[123.847664,9.65388],[123.847665,9.654242],[123.847847,9.654241],[123.847846,9.653879],[123.847664,9.65388]]],[[[123.847526,9.655146],[123.847485,9.655217],[123.847485,9.655327],[123.847667,9.655327],[123.847667,9.655146],[123.847526,9.655146]]],[[[123.84733,9.655509],[123.847304,9.65569],[123.847486,9.655689],[123.847486,9.655508],[123.84733,9.655509]]],[[[123.847054,9.656117],[123.847016,9.656233],[123.847123,9.656233],[123.847122,9.656052],[123.847054,9.656117]]],[[[123.846659,9.656654],[123.846638,9.656718],[123.846577,9.656735],[123.846577,9.656777],[123.84676,9.656776],[123.846759,9.656595],[123.846659,9.656654]]],[[[123.846163,9.657863],[123.846089,9.658044],[123.846216,9.658044],[123.846216,9.657863],[123.846163,9.657863]]],[[[123.845799,9.658587],[123.845695,9.658768],[123.845853,9.658768],[123.845853,9.658587],[123.845799,9.658587]]],[[[123.845672,9.65913],[123.845672,9.659311],[123.845855,9.659311],[123.845854,9.65913],[123.845672,9.65913]]],[[[123.844588,9.663112],[123.844589,9.663293],[123.844771,9.663293],[123.84477,9.663112],[123.844588,9.663112]]],[[[123.844408,9.663836],[123.844408,9.663827],[123.84437,9.66382],[123.84431,9.66369],[123.844225,9.66372],[123.844225,9.663837],[123.844408,9.663836]]],[[[123.84408,9.664018],[123.844046,9.664199],[123.844226,9.664198],[123.844226,9.664017],[123.84408,9.664018]]],[[[123.844593,9.665102],[123.844593,9.665283],[123.844776,9.665282],[123.844775,9.665101],[123.844593,9.665102]]],[[[123.844959,9.665463],[123.844959,9.665644],[123.845324,9.665643],[123.845323,9.665462],[123.845141,9.665462],[123.84514,9.665281],[123.844776,9.665282],[123.844776,9.665463],[123.844959,9.665463]]],[[[123.844594,9.665644],[123.844595,9.665825],[123.844959,9.665824],[123.844959,9.665644],[123.844594,9.665644]]],[[[123.844288,9.666188],[123.844232,9.666369],[123.844414,9.666368],[123.844413,9.666187],[123.844288,9.666188]]],[[[123.844233,9.667092],[123.844234,9.667273],[123.844416,9.667273],[123.844416,9.667092],[123.844233,9.667092]]],[[[123.844599,9.667453],[123.844598,9.667272],[123.844416,9.667273],[123.844417,9.667454],[123.844599,9.667453]]],[[[123.844781,9.667453],[123.844782,9.667634],[123.844964,9.667633],[123.844963,9.667452],[123.844781,9.667453]]],[[[123.844964,9.667814],[123.844965,9.667995],[123.845147,9.667994],[123.845147,9.667814],[123.844964,9.667814]]],[[[123.845148,9.668356],[123.845148,9.668537],[123.845331,9.668537],[123.84533,9.668356],[123.845148,9.668356]]],[[[123.845513,9.668536],[123.845514,9.668717],[123.845696,9.668717],[123.845695,9.668536],[123.845513,9.668536]]],[[[123.845878,9.668716],[123.845879,9.668897],[123.846061,9.668897],[123.84606,9.668716],[123.845878,9.668716]]],[[[123.846243,9.668896],[123.846244,9.669077],[123.846426,9.669077],[123.846425,9.668896],[123.846243,9.668896]]],[[[123.846609,9.669257],[123.846608,9.669076],[123.846426,9.669077],[123.846426,9.669257],[123.846609,9.669257]]],[[[123.846792,9.669618],[123.846792,9.669799],[123.846975,9.669799],[123.846974,9.669618],[123.846792,9.669618]]],[[[123.847157,9.669979],[123.847157,9.669798],[123.846975,9.669799],[123.846975,9.66998],[123.847157,9.669979]]],[[[123.847522,9.670159],[123.847523,9.67034],[123.847705,9.67034],[123.847705,9.670159],[123.847522,9.670159]]],[[[123.847887,9.670339],[123.847888,9.67052],[123.84807,9.67052],[123.84807,9.670339],[123.847887,9.670339]]],[[[123.849166,9.671421],[123.849167,9.671602],[123.849349,9.671602],[123.849348,9.671421],[123.849166,9.671421]]],[[[123.849532,9.671782],[123.849531,9.671601],[123.849349,9.671602],[123.849349,9.671783],[123.849532,9.671782]]],[[[123.849714,9.671782],[123.849714,9.671962],[123.849897,9.671962],[123.849896,9.671781],[123.849714,9.671782]]],[[[123.850628,9.672684],[123.850628,9.672865],[123.85081,9.672864],[123.85081,9.672683],[123.850628,9.672684]]],[[[123.85081,9.672864],[123.850811,9.673045],[123.850993,9.673045],[123.850993,9.672864],[123.85081,9.672864]]],[[[123.850993,9.673045],[123.850994,9.673225],[123.851176,9.673225],[123.851175,9.673044],[123.850993,9.673045]]],[[[123.851179,9.67431],[123.851361,9.67431],[123.851358,9.673225],[123.851176,9.673225],[123.851179,9.67431]]],[[[123.850999,9.675215],[123.851001,9.676119],[123.851183,9.676119],[123.851181,9.675215],[123.850999,9.675215]]],[[[123.850821,9.677024],[123.850823,9.677748],[123.851005,9.677747],[123.851003,9.677024],[123.850821,9.677024]]],[[[123.857933,9.678092],[123.857933,9.678273],[123.858116,9.678272],[123.858115,9.678091],[123.857933,9.678092]]],[[[123.851006,9.678109],[123.851006,9.67829],[123.851189,9.678289],[123.851188,9.678109],[123.851006,9.678109]]],[[[123.858116,9.678453],[123.858117,9.678996],[123.8583,9.678995],[123.858298,9.678453],[123.858116,9.678453]]],[[[123.851189,9.678651],[123.85119,9.679013],[123.851373,9.679013],[123.851372,9.678651],[123.851189,9.678651]]],[[[123.851373,9.679193],[123.851374,9.679374],[123.851556,9.679374],[123.851555,9.679193],[123.851373,9.679193]]],[[[123.858119,9.679538],[123.858119,9.679719],[123.858302,9.679719],[123.858301,9.679538],[123.858119,9.679538]]],[[[123.858484,9.679899],[123.858484,9.679718],[123.858302,9.679719],[123.858302,9.6799],[123.858484,9.679899]]],[[[123.852287,9.680276],[123.852288,9.680457],[123.85247,9.680457],[123.85247,9.680276],[123.852287,9.680276]]],[[[123.852653,9.680637],[123.852652,9.680456],[123.85247,9.680457],[123.852471,9.680638],[123.852653,9.680637]]],[[[123.853202,9.681721],[123.853203,9.681902],[123.853385,9.681902],[123.853385,9.681721],[123.853202,9.681721]]],[[[123.859585,9.682429],[123.859585,9.68261],[123.859767,9.682609],[123.859767,9.682428],[123.859585,9.682429]]],[[[123.853569,9.682625],[123.85357,9.682805],[123.853752,9.682805],[123.853752,9.682624],[123.853569,9.682625]]],[[[123.859768,9.68279],[123.859769,9.683333],[123.859951,9.683332],[123.85995,9.68279],[123.859768,9.68279]]],[[[123.853753,9.683167],[123.853753,9.683348],[123.853936,9.683347],[123.853935,9.683166],[123.853753,9.683167]]],[[[123.859952,9.683513],[123.859952,9.683694],[123.860135,9.683693],[123.860134,9.683513],[123.859952,9.683513]]],[[[123.853937,9.683709],[123.853937,9.68389],[123.854119,9.683889],[123.854119,9.683708],[123.853937,9.683709]]],[[[123.859953,9.683875],[123.859771,9.683875],[123.859771,9.684056],[123.859953,9.684056],[123.859953,9.683875]]],[[[123.858312,9.683698],[123.858494,9.683698],[123.858493,9.683155],[123.858675,9.683154],[123.858672,9.681888],[123.858854,9.681888],[123.858854,9.681707],[123.859036,9.681707],[123.859035,9.681526],[123.859218,9.681525],[123.859217,9.681344],[123.8594,9.681344],[123.8594,9.681525],[123.859582,9.681524],[123.859583,9.681705],[123.859765,9.681705],[123.859764,9.681343],[123.859582,9.681343],[123.859581,9.680982],[123.859399,9.680982],[123.859398,9.680801],[123.858851,9.680803],[123.85885,9.680441],[123.858668,9.680441],[123.858667,9.68008],[123.858485,9.68008],[123.858486,9.680623],[123.858668,9.680622],[123.858669,9.680984],[123.858852,9.680984],[123.858852,9.681164],[123.85867,9.681165],[123.85867,9.681346],[123.858488,9.681346],[123.858488,9.681527],[123.858306,9.681528],[123.858307,9.681708],[123.858124,9.681709],[123.858125,9.68189],[123.85776,9.681891],[123.85776,9.68171],[123.857577,9.68171],[123.857577,9.681529],[123.857395,9.68153],[123.857394,9.681168],[123.857212,9.681169],[123.857211,9.680988],[123.857029,9.680988],[123.857028,9.680807],[123.856664,9.680808],[123.856663,9.680446],[123.856845,9.680446],[123.856845,9.680265],[123.856662,9.680266],[123.856661,9.679904],[123.856844,9.679903],[123.856841,9.678637],[123.857023,9.678637],[123.857017,9.676466],[123.8572,9.676466],[123.857198,9.675923],[123.857563,9.675922],[123.857563,9.676103],[123.857746,9.676103],[123.857749,9.67755],[123.857932,9.677549],[123.857926,9.67556],[123.858109,9.675559],[123.858108,9.675197],[123.85829,9.675197],[123.85829,9.675016],[123.858472,9.675016],[123.858471,9.674654],[123.858653,9.674653],[123.858653,9.674473],[123.858471,9.674473],[123.85847,9.674111],[123.858652,9.674111],[123.858652,9.67393],[123.859016,9.673929],[123.859016,9.673748],[123.859198,9.673748],[123.859197,9.673567],[123.859562,9.673566],[123.859562,9.673385],[123.859926,9.673384],[123.859925,9.673022],[123.859743,9.673023],[123.859742,9.672661],[123.858831,9.672663],[123.858831,9.672844],[123.858466,9.672845],[123.858467,9.673207],[123.858285,9.673207],[123.858286,9.673569],[123.858104,9.67357],[123.858104,9.67375],[123.85774,9.673751],[123.85774,9.673932],[123.857193,9.673934],[123.857194,9.674114],[123.857011,9.674115],[123.857012,9.674296],[123.85683,9.674296],[123.85683,9.674477],[123.856648,9.674478],[123.85665,9.675201],[123.856832,9.675201],[123.856833,9.675562],[123.857015,9.675562],[123.857016,9.675924],[123.856834,9.675924],[123.85684,9.678275],[123.856657,9.678276],[123.856659,9.678819],[123.856476,9.678819],[123.856482,9.680989],[123.856664,9.680989],[123.856665,9.68117],[123.856847,9.681169],[123.856847,9.68135],[123.85703,9.68135],[123.85703,9.681531],[123.857212,9.68153],[123.857213,9.681892],[123.857578,9.681891],[123.857578,9.682072],[123.858125,9.682071],[123.858126,9.682251],[123.858308,9.682251],[123.858308,9.682432],[123.858126,9.682432],[123.858127,9.682613],[123.857397,9.682615],[123.857398,9.682796],[123.857216,9.682796],[123.857217,9.683339],[123.858129,9.683337],[123.85813,9.68406],[123.858313,9.68406],[123.858312,9.683698]]],[[[123.859589,9.684237],[123.859771,9.684237],[123.859771,9.684056],[123.859589,9.684057],[123.859589,9.684237]]],[[[123.859407,9.684419],[123.85959,9.684418],[123.859589,9.684237],[123.859407,9.684238],[123.859407,9.684419]]],[[[123.85412,9.684251],[123.854121,9.684432],[123.854303,9.684432],[123.854303,9.684251],[123.85412,9.684251]]],[[[123.859408,9.6846],[123.859225,9.6846],[123.859226,9.684781],[123.859408,9.684781],[123.859408,9.6846]]],[[[123.854304,9.684612],[123.854304,9.684793],[123.854486,9.684793],[123.854486,9.684612],[123.854304,9.684612]]],[[[123.859045,9.685143],[123.859227,9.685143],[123.859226,9.684781],[123.859044,9.684781],[123.859045,9.685143]]],[[[123.859045,9.685143],[123.858862,9.685144],[123.858864,9.685686],[123.859046,9.685686],[123.859045,9.685143]]],[[[123.854854,9.685877],[123.854854,9.686058],[123.855036,9.686058],[123.855036,9.685877],[123.854854,9.685877]]],[[[123.855037,9.686238],[123.855037,9.686419],[123.85522,9.686419],[123.855219,9.686238],[123.855037,9.686238]]],[[[123.857949,9.684422],[123.857767,9.684423],[123.857769,9.685146],[123.857951,9.685146],[123.857954,9.686593],[123.858137,9.686592],[123.85813,9.68406],[123.857948,9.684061],[123.857949,9.684422]]],[[[123.855402,9.686599],[123.85522,9.6866],[123.855221,9.686962],[123.855403,9.686961],[123.855402,9.686599]]],[[[123.85832,9.686773],[123.858137,9.686773],[123.858139,9.687316],[123.858321,9.687316],[123.85832,9.686773]]],[[[123.855586,9.687141],[123.855586,9.687322],[123.855951,9.687321],[123.855951,9.687141],[123.855768,9.687141],[123.855768,9.68696],[123.855403,9.686961],[123.855404,9.687142],[123.855586,9.687141]]],[[[123.856133,9.687321],[123.856134,9.687502],[123.858139,9.687497],[123.858139,9.687316],[123.856133,9.687321]]],[[[123.856864,9.687862],[123.856864,9.688043],[123.857958,9.68804],[123.857958,9.687859],[123.856864,9.687862]]],[[[123.856682,9.688043],[123.856682,9.687862],[123.856317,9.687863],[123.856317,9.688044],[123.856682,9.688043]]],[[[123.856136,9.688225],[123.856318,9.688225],[123.856317,9.688044],[123.856135,9.688044],[123.856136,9.688225]]],[[[123.855955,9.688768],[123.856137,9.688768],[123.856136,9.688225],[123.855953,9.688226],[123.855955,9.688768]]],[[[123.856138,9.68913],[123.856138,9.689311],[123.856321,9.68931],[123.85632,9.689129],[123.856138,9.68913]]],[[[123.856321,9.68931],[123.856321,9.689491],[123.856503,9.689491],[123.856503,9.68931],[123.856321,9.68931]]],[[[123.856506,9.690395],[123.856688,9.690394],[123.856686,9.68949],[123.856503,9.689491],[123.856506,9.690395]]],[[[123.856689,9.690756],[123.856507,9.690757],[123.856507,9.690938],[123.856689,9.690937],[123.856689,9.690756]]],[[[123.856434,9.691014],[123.856487,9.691068],[123.85647,9.691119],[123.856508,9.691118],[123.856507,9.690938],[123.856457,9.690938],[123.856434,9.691014]]],[[[123.856404,9.691105],[123.856358,9.691119],[123.856426,9.691119],[123.856404,9.691105]]],[[[123.856143,9.69123],[123.856144,9.691592],[123.856326,9.691591],[123.856326,9.69123],[123.856143,9.69123]]],[[[123.859229,9.685866],[123.859231,9.686951],[123.859414,9.686951],[123.859416,9.687855],[123.859598,9.687855],[123.859599,9.688217],[123.859052,9.688218],[123.859052,9.688037],[123.858687,9.688038],[123.858687,9.687857],[123.858322,9.687858],[123.858322,9.687677],[123.85814,9.687678],[123.85814,9.688039],[123.858505,9.688039],[123.858506,9.688219],[123.858688,9.688219],[123.858688,9.6884],[123.859235,9.688398],[123.859237,9.689303],[123.859055,9.689303],[123.859058,9.690389],[123.858876,9.690389],[123.858877,9.690932],[123.859788,9.690929],[123.859788,9.690748],[123.85997,9.690748],[123.859971,9.690929],[123.860335,9.690928],[123.860338,9.691832],[123.86052,9.691832],[123.86052,9.692013],[123.860703,9.692012],[123.860702,9.691831],[123.861067,9.691831],[123.861066,9.69165],[123.861431,9.691649],[123.861431,9.691468],[123.861795,9.691467],[123.861794,9.690924],[123.861611,9.690925],[123.861611,9.690744],[123.861429,9.690744],[123.861427,9.690202],[123.861245,9.690202],[123.861244,9.68984],[123.861062,9.689841],[123.861061,9.689479],[123.860879,9.68948],[123.860878,9.689299],[123.860696,9.689299],[123.860695,9.688937],[123.86033,9.688938],[123.860329,9.688577],[123.860147,9.688577],[123.860147,9.688396],[123.859964,9.688397],[123.859963,9.688035],[123.859781,9.688035],[123.85978,9.687493],[123.859597,9.687493],[123.859595,9.686589],[123.859413,9.686589],[123.859412,9.686408],[123.859595,9.686408],[123.859593,9.685865],[123.859411,9.685866],[123.859411,9.685685],[123.859046,9.685686],[123.859046,9.685867],[123.859229,9.685866]],[[123.860148,9.688939],[123.860148,9.68912],[123.860331,9.689119],[123.860331,9.6893],[123.860514,9.6893],[123.860514,9.689481],[123.860696,9.68948],[123.860697,9.689842],[123.86088,9.689841],[123.860881,9.690384],[123.859423,9.690388],[123.85942,9.689302],[123.859602,9.689302],[123.859601,9.688759],[123.859965,9.688758],[123.859966,9.688939],[123.860148,9.688939]]],[[[123.856615,9.692174],[123.856614,9.691842],[123.856692,9.691841],[123.856691,9.691661],[123.856509,9.691661],[123.856509,9.691772],[123.856327,9.691772],[123.856327,9.691971],[123.856454,9.692003],[123.856461,9.69207],[123.856406,9.692134],[123.856433,9.692134],[123.856433,9.692174],[123.856615,9.692174]]],[[[123.861355,9.692343],[123.861173,9.692343],[123.861173,9.692524],[123.861356,9.692524],[123.861355,9.692343]]],[[[123.863545,9.693061],[123.863544,9.69288],[123.86318,9.692881],[123.863179,9.6927],[123.862815,9.692701],[123.862813,9.692158],[123.862631,9.692159],[123.86263,9.691797],[123.862448,9.691798],[123.862447,9.691436],[123.862265,9.691436],[123.862264,9.691255],[123.861899,9.691256],[123.8619,9.691437],[123.862082,9.691437],[123.862083,9.691618],[123.862265,9.691617],[123.862266,9.691979],[123.862448,9.691979],[123.862451,9.692883],[123.862633,9.692882],[123.862633,9.693063],[123.862816,9.693063],[123.862816,9.693244],[123.86391,9.693241],[123.863909,9.69306],[123.863545,9.693061]]],[[[123.864092,9.693241],[123.864093,9.693421],[123.864275,9.693421],[123.864274,9.69324],[123.864092,9.693241]]],[[[123.8563,9.69232],[123.856146,9.692437],[123.856147,9.692537],[123.856069,9.692537],[123.85607,9.692858],[123.855965,9.692858],[123.855966,9.693261],[123.855921,9.693261],[123.855889,9.693401],[123.855784,9.693402],[123.855785,9.693582],[123.855889,9.693582],[123.85589,9.693623],[123.856072,9.693622],[123.856071,9.693471],[123.856254,9.693441],[123.856252,9.692928],[123.856435,9.692898],[123.856433,9.692385],[123.856511,9.692385],[123.85651,9.692204],[123.856383,9.692175],[123.8563,9.69232]]],[[[123.864823,9.693962],[123.864824,9.694143],[123.865006,9.694143],[123.865005,9.693962],[123.864823,9.693962]]],[[[123.865189,9.694323],[123.865188,9.694142],[123.865006,9.694143],[123.865006,9.694323],[123.865189,9.694323]]],[[[123.855707,9.693623],[123.855709,9.694347],[123.855891,9.694346],[123.855891,9.694195],[123.855968,9.694195],[123.855967,9.693652],[123.855707,9.693623]]],[[[123.865737,9.694683],[123.865554,9.694684],[123.865555,9.695046],[123.865737,9.695045],[123.865737,9.694683]]],[[[123.865373,9.695227],[123.865556,9.695204],[123.865555,9.695046],[123.865373,9.695046],[123.865373,9.695227]]],[[[123.856075,9.694708],[123.85597,9.694708],[123.855969,9.694486],[123.855787,9.694487],[123.855788,9.694849],[123.855893,9.694848],[123.855894,9.695251],[123.856076,9.69525],[123.856075,9.694708]]],[[[123.864786,9.695409],[123.86478,9.69542],[123.86485,9.69551],[123.865009,9.695526],[123.865009,9.695409],[123.864786,9.695409]]],[[[123.862274,9.695235],[123.862276,9.695777],[123.862458,9.695777],[123.862457,9.695234],[123.862274,9.695235]]],[[[123.860262,9.692527],[123.860262,9.692346],[123.859897,9.692347],[123.859896,9.692166],[123.859714,9.692166],[123.859714,9.691985],[123.859531,9.691986],[123.859531,9.691805],[123.858984,9.691806],[123.858985,9.691987],[123.858802,9.691988],[123.858802,9.691807],[123.858619,9.691807],[123.858619,9.691626],[123.858437,9.691627],[123.858436,9.691446],[123.858254,9.691446],[123.858253,9.691266],[123.858071,9.691266],[123.858073,9.691809],[123.85789,9.691809],[123.857891,9.69199],[123.857526,9.691991],[123.857527,9.692172],[123.857344,9.692172],[123.857345,9.692353],[123.85698,9.692354],[123.856981,9.692535],[123.856798,9.692535],[123.856799,9.692716],[123.856981,9.692716],[123.856982,9.693077],[123.8568,9.693078],[123.856801,9.69344],[123.856618,9.69344],[123.85662,9.693983],[123.856437,9.693983],[123.856439,9.694707],[123.856621,9.694706],[123.856624,9.695611],[123.856806,9.69561],[123.856807,9.695791],[123.856989,9.695791],[123.856988,9.69561],[123.857171,9.695609],[123.85717,9.695428],[123.857353,9.695428],[123.857352,9.695247],[123.857534,9.695247],[123.857532,9.694342],[123.858079,9.694341],[123.858079,9.694522],[123.858262,9.694521],[123.858263,9.694883],[123.858445,9.694883],[123.858447,9.695787],[123.85863,9.695787],[123.85863,9.695967],[123.858995,9.695966],[123.858995,9.696147],[123.859177,9.696147],[123.859178,9.696328],[123.860089,9.696325],[123.860088,9.695783],[123.859906,9.695783],[123.859905,9.695422],[123.859722,9.695422],[123.859722,9.695241],[123.859904,9.695241],[123.859903,9.694879],[123.860086,9.694878],[123.860085,9.694698],[123.860268,9.694697],[123.860266,9.694155],[123.860448,9.694154],[123.860448,9.693973],[123.860813,9.693972],[123.860813,9.694153],[123.860995,9.694153],[123.860996,9.694334],[123.861178,9.694333],[123.861179,9.694695],[123.861544,9.694694],[123.861543,9.694513],[123.861908,9.694512],[123.861908,9.694693],[123.862091,9.694693],[123.862091,9.695054],[123.862274,9.695054],[123.862272,9.69433],[123.86136,9.694333],[123.86136,9.694152],[123.861178,9.694152],[123.861177,9.693971],[123.860995,9.693972],[123.860994,9.693791],[123.860812,9.693791],[123.860812,9.693611],[123.860447,9.693611],[123.860448,9.693792],[123.860265,9.693793],[123.860266,9.693974],[123.860083,9.693974],[123.860084,9.694336],[123.859902,9.694336],[123.859903,9.694698],[123.859721,9.694699],[123.859721,9.694879],[123.859356,9.69488],[123.859358,9.695604],[123.858994,9.695605],[123.858993,9.695424],[123.858811,9.695424],[123.858809,9.694701],[123.858627,9.694701],[123.858626,9.69434],[123.85899,9.694339],[123.858991,9.694519],[123.859538,9.694518],[123.859536,9.693795],[123.859354,9.693795],[123.859353,9.693433],[123.859717,9.693432],[123.859717,9.693252],[123.860082,9.693251],[123.860081,9.69307],[123.860628,9.693068],[123.860628,9.692887],[123.86081,9.692887],[123.860809,9.692706],[123.861174,9.692705],[123.861173,9.692524],[123.860262,9.692527]],[[123.858624,9.693616],[123.858625,9.693978],[123.858078,9.693979],[123.858077,9.693437],[123.858441,9.693436],[123.858442,9.693616],[123.858624,9.693616]],[[123.857169,9.694886],[123.856987,9.694886],[123.856986,9.694705],[123.856804,9.694706],[123.856802,9.694163],[123.856985,9.694163],[123.856984,9.693982],[123.857349,9.693981],[123.857349,9.694162],[123.857167,9.694162],[123.857169,9.694886]]],[[[123.85608,9.696878],[123.856262,9.696878],[123.856258,9.69525],[123.856076,9.69525],[123.85608,9.696878]]],[[[123.862279,9.697043],[123.86228,9.697586],[123.862463,9.697586],[123.862461,9.697043],[123.862279,9.697043]]],[[[123.857357,9.697237],[123.857356,9.696875],[123.857174,9.696875],[123.857175,9.697237],[123.856993,9.697238],[123.856993,9.697599],[123.856811,9.6976],[123.856812,9.697962],[123.857359,9.69796],[123.857359,9.697779],[123.857541,9.697779],[123.857539,9.697236],[123.857357,9.697237]]],[[[123.862282,9.69831],[123.8621,9.69831],[123.8621,9.698491],[123.862283,9.69849],[123.862282,9.69831]]],[[[123.861918,9.698672],[123.862101,9.698672],[123.8621,9.698491],[123.861918,9.698491],[123.861918,9.698672]]],[[[123.856631,9.698324],[123.856084,9.698325],[123.856081,9.697059],[123.855898,9.697059],[123.855902,9.698486],[123.856084,9.698506],[123.856085,9.698687],[123.856632,9.698686],[123.856631,9.698324]]],[[[123.861371,9.698674],[123.861372,9.698855],[123.861554,9.698854],[123.861554,9.698673],[123.861371,9.698674]]],[[[123.859366,9.698679],[123.859367,9.69886],[123.859731,9.698859],[123.859731,9.698678],[123.859366,9.698679]]],[[[123.857908,9.698682],[123.857908,9.698863],[123.858273,9.698862],[123.858272,9.698681],[123.857908,9.698682]]]]}},{"type":"Feature","properties":{"level":3,"classification":"high"},"geometry":{"type":"MultiPolygon","coordinates":[[[[123.847845,9.653518],[123.848027,9.653517],[123.848027,9.653156],[123.848145,9.653155],[123.847841,9.65303],[123.847681,9.653252],[123.847548,9.653152],[123.8476,9.65306],[123.847466,9.652963],[123.847411,9.653046],[123.84738,9.65302],[123.847401,9.653068],[123.847361,9.653141],[123.847508,9.653207],[123.847537,9.653171],[123.847692,9.653292],[123.84745,9.6538],[123.84722,9.65376],[123.84727,9.653541],[123.847101,9.6535],[123.846963,9.653837],[123.84718,9.65389],[123.847206,9.65379],[123.847382,9.653828],[123.847334,9.65405],[123.847488,9.654079],[123.847614,9.654172],[123.847649,9.654252],[123.847604,9.654341],[123.8476,9.65446],[123.847374,9.654509],[123.847553,9.654661],[123.84748,9.65499],[123.847549,9.655053],[123.847526,9.655146],[123.847667,9.655146],[123.847664,9.65388],[123.847846,9.653879],[123.847845,9.653518]]],[[[123.847485,9.655327],[123.847485,9.655217],[123.84733,9.655509],[123.847486,9.655508],[123.847485,9.655327]]],[[[123.847195,9.655813],[123.847142,9.655871],[123.847304,9.65587],[123.847304,9.655656],[123.847195,9.655813]]],[[[123.847122,9.655927],[123.847122,9.655914],[123.847121,9.655916],[123.847122,9.655927]]],[[[123.847122,9.655993],[123.847122,9.655982],[123.847121,9.65599],[123.847122,9.655993]]],[[[123.847122,9.656036],[123.847115,9.656052],[123.847122,9.656052],[123.847122,9.656036]]],[[[123.846833,9.656414],[123.846941,9.656414],[123.846941,9.656369],[123.846833,9.656414]]],[[[123.846744,9.656585],[123.846735,9.656595],[123.846759,9.656595],[123.846757,9.656563],[123.846744,9.656585]]],[[[123.846485,9.656976],[123.846409,9.656953],[123.846363,9.657081],[123.846499,9.657139],[123.846578,9.657138],[123.846577,9.656735],[123.846485,9.656976]]],[[[123.846397,9.657429],[123.846364,9.657501],[123.846397,9.657501],[123.846397,9.657429]]],[[[123.846163,9.657863],[123.846216,9.657863],[123.846215,9.657664],[123.846178,9.657697],[123.846163,9.657863]]],[[[123.846013,9.658189],[123.845997,9.658225],[123.846034,9.658225],[123.846034,9.658158],[123.846013,9.658189]]],[[[123.845799,9.658587],[123.845853,9.658587],[123.845853,9.658494],[123.845799,9.658587]]],[[[123.845534,9.659155],[123.845489,9.659158],[123.845475,9.659188],[123.84535,9.659674],[123.845491,9.659673],[123.84549,9.659492],[123.845673,9.659492],[123.845671,9.658813],[123.845534,9.659155]]],[[[123.845309,9.659831],[123.845294,9.659855],[123.845309,9.659855],[123.845309,9.659831]]],[[[123.845043,9.660229],[123.84492,9.66026],[123.844952,9.660398],[123.845128,9.660398],[123.845127,9.659992],[123.845043,9.660229]]],[[[123.844947,9.66076],[123.844947,9.660648],[123.84492,9.66075],[123.844947,9.66076]]],[[[123.84466,9.66101],[123.844651,9.661122],[123.844765,9.661122],[123.844765,9.660905],[123.84466,9.66101]]],[[[123.844584,9.661484],[123.844584,9.661299],[123.844487,9.661665],[123.844584,9.661665],[123.844584,9.661484]]],[[[123.844403,9.661796],[123.84431,9.661931],[123.844329,9.66204],[123.8443,9.6622],[123.844202,9.662333],[123.844267,9.662726],[123.844247,9.662893],[123.844302,9.662984],[123.844261,9.663057],[123.8443,9.663177],[123.844283,9.663287],[123.844464,9.663454],[123.844597,9.663508],[123.844642,9.663581],[123.84462,9.663655],[123.844772,9.663654],[123.844771,9.663293],[123.844589,9.663293],[123.844588,9.663112],[123.844406,9.663113],[123.844403,9.661796]]],[[[123.84408,9.664018],[123.844226,9.664017],[123.844225,9.66372],[123.84414,9.66375],[123.84408,9.664018]]],[[[123.844042,9.66419],[123.844044,9.664194],[123.844044,9.664181],[123.844042,9.66419]]],[[[123.844228,9.665103],[123.844228,9.664922],[123.844046,9.664922],[123.844044,9.664247],[123.84399,9.664423],[123.844008,9.66447],[123.84396,9.664558],[123.843979,9.664636],[123.843947,9.664778],[123.843891,9.664871],[123.84396,9.664909],[123.843969,9.664971],[123.844032,9.665048],[123.843984,9.665136],[123.844072,9.665256],[123.844093,9.665346],[123.844333,9.665386],[123.844462,9.665488],[123.84449,9.66555],[123.844488,9.66562],[123.844443,9.66569],[123.844475,9.665708],[123.844472,9.665739],[123.844426,9.665741],[123.844288,9.666188],[123.844413,9.666187],[123.844413,9.665826],[123.844595,9.665825],[123.844594,9.665644],[123.844959,9.665644],[123.844959,9.665463],[123.844776,9.665463],[123.844776,9.665282],[123.844593,9.665283],[123.844593,9.665102],[123.844228,9.665103]]],[[[123.855826,9.637943],[123.855826,9.637762],[123.85619,9.637761],[123.85619,9.63758],[123.856819,9.637578],[123.856796,9.637557],[123.856816,9.637537],[123.856603,9.637264],[123.856446,9.637303],[123.856429,9.63722],[123.856365,9.637239],[123.856385,9.637132],[123.856293,9.637175],[123.856067,9.636981],[123.855888,9.637072],[123.85566,9.63686],[123.855571,9.636968],[123.85558,9.636987],[123.85547,9.63709],[123.85527,9.637012],[123.855268,9.637082],[123.855223,9.637116],[123.85514,9.63712],[123.855101,9.637171],[123.85521,9.63731],[123.85512,9.63742],[123.85501,9.637351],[123.854951,9.637501],[123.854752,9.637391],[123.854723,9.637436],[123.854741,9.637455],[123.85465,9.63756],[123.85391,9.63668],[123.853686,9.636859],[123.85363,9.63684],[123.85361,9.63699],[123.853905,9.637341],[123.85399,9.63738],[123.85413,9.637266],[123.854223,9.63735],[123.854237,9.637374],[123.85419,9.63748],[123.85428,9.63754],[123.8542,9.63764],[123.854297,9.63769],[123.854366,9.63768],[123.854411,9.637748],[123.854314,9.637865],[123.854397,9.637903],[123.854383,9.637942],[123.854413,9.63797],[123.854514,9.637975],[123.854563,9.637938],[123.85463,9.63798],[123.85453,9.6381],[123.854613,9.638094],[123.854656,9.638062],[123.854682,9.638095],[123.8545,9.63828],[123.85459,9.63837],[123.8545,9.63845],[123.854635,9.638593],[123.854635,9.638663],[123.8546,9.63864],[123.85456,9.63868],[123.85463,9.63885],[123.854735,9.63885],[123.854734,9.638669],[123.854917,9.638668],[123.854916,9.638488],[123.855099,9.638487],[123.855098,9.638306],[123.855463,9.638305],[123.855462,9.638124],[123.855644,9.638124],[123.855644,9.637943],[123.855826,9.637943]]],[[[123.854431,9.639031],[123.854553,9.639031],[123.854553,9.638943],[123.854431,9.639031]]],[[[123.853647,9.641204],[123.853829,9.641203],[123.853828,9.640661],[123.85401,9.64066],[123.854008,9.639756],[123.85419,9.639755],[123.854189,9.639213],[123.854371,9.639212],[123.854371,9.639066],[123.854339,9.639081],[123.854263,9.639013],[123.854079,9.639126],[123.85407,9.63921],[123.85415,9.63927],[123.854,9.63942],[123.853974,9.639732],[123.854,9.639756],[123.853967,9.639808],[123.853976,9.639967],[123.85395,9.64001],[123.85285,9.63969],[123.852831,9.639786],[123.853101,9.639863],[123.85311,9.63989],[123.852986,9.64004],[123.852901,9.640073],[123.85293,9.64018],[123.852794,9.640365],[123.85348,9.64059],[123.85346,9.64069],[123.85322,9.64086],[123.853133,9.640847],[123.85297,9.64075],[123.852788,9.640802],[123.852498,9.640665],[123.852392,9.640493],[123.852011,9.641218],[123.85212,9.64129],[123.852338,9.641239],[123.85304,9.64166],[123.853002,9.641731],[123.853121,9.64179],[123.853152,9.641973],[123.852881,9.642527],[123.853048,9.642568],[123.853198,9.642747],[123.853288,9.642676],[123.8533,9.642634],[123.85333,9.64264],[123.853366,9.642789],[123.853411,9.642836],[123.853394,9.642902],[123.85343,9.64305],[123.8534,9.64311],[123.853049,9.643091],[123.853006,9.643193],[123.853068,9.643227],[123.853063,9.643286],[123.85312,9.643326],[123.853161,9.643419],[123.853121,9.643548],[123.853179,9.643554],[123.853151,9.643593],[123.8532,9.64366],[123.853148,9.643737],[123.853289,9.643737],[123.853288,9.643375],[123.85347,9.643375],[123.853469,9.643013],[123.853652,9.643013],[123.853647,9.641204]]],[[[123.85279,9.64357],[123.85262,9.64395],[123.85282,9.64393],[123.852833,9.644065],[123.852949,9.643865],[123.852995,9.643872],[123.85308,9.643912],[123.853077,9.643956],[123.852946,9.6441],[123.853108,9.644099],[123.853115,9.643737],[123.853024,9.64369],[123.853029,9.643639],[123.85279,9.64357]]],[[[123.84705,9.64924],[123.846683,9.649786],[123.846727,9.649816],[123.847087,9.649299],[123.847158,9.649248],[123.84733,9.64926],[123.847316,9.649492],[123.847438,9.6495],[123.84732,9.64947],[123.847336,9.649363],[123.847394,9.649352],[123.847336,9.649343],[123.847346,9.649265],[123.8482,9.64932],[123.848255,9.648818],[123.84965,9.64892],[123.849644,9.649091],[123.84984,9.649115],[123.84984,9.6492],[123.849958,9.649211],[123.849942,9.649311],[123.849983,9.649355],[123.849939,9.649382],[123.84991,9.6495],[123.849772,9.649401],[123.849688,9.649481],[123.849476,9.649499],[123.849476,9.649534],[123.849658,9.649534],[123.849658,9.649715],[123.849294,9.649716],[123.849293,9.649479],[123.849183,9.649479],[123.8491,9.64958],[123.849051,9.649885],[123.849243,9.649941],[123.849485,9.650075],[123.84974,9.65008],[123.849827,9.65013],[123.84984,9.65019],[123.84975,9.650438],[123.849843,9.650438],[123.849842,9.650076],[123.850024,9.650076],[123.850023,9.649533],[123.850205,9.649533],[123.850204,9.649352],[123.850387,9.649351],[123.850386,9.64917],[123.850569,9.64917],[123.850568,9.648808],[123.85075,9.648808],[123.850749,9.648265],[123.850931,9.648265],[123.85093,9.647903],[123.851112,9.647902],[123.851111,9.64736],[123.851293,9.647359],[123.851293,9.647179],[123.851475,9.647178],[123.851474,9.646816],[123.851656,9.646816],[123.851656,9.646635],[123.851838,9.646635],[123.851837,9.646092],[123.852019,9.646091],[123.852018,9.64573],[123.8522,9.645729],[123.852199,9.645368],[123.852564,9.645367],[123.852563,9.644824],[123.852745,9.644824],[123.852744,9.644281],[123.852926,9.64428],[123.852925,9.644144],[123.85254,9.64395],[123.852499,9.644016],[123.85247,9.64401],[123.852497,9.643919],[123.852138,9.643784],[123.85177,9.64445],[123.851701,9.64442],[123.851652,9.644487],[123.851721,9.644534],[123.85131,9.64534],[123.85119,9.645414],[123.85072,9.6451],[123.85075,9.64504],[123.85064,9.64497],[123.850708,9.644843],[123.850564,9.644752],[123.850545,9.644838],[123.850578,9.644864],[123.85052,9.64498],[123.84971,9.64448],[123.849767,9.644393],[123.849623,9.644313],[123.84947,9.64455],[123.849599,9.64464],[123.849657,9.644567],[123.85073,9.64523],[123.850404,9.645742],[123.850809,9.64597],[123.85103,9.64562],[123.851141,9.645685],[123.85118,9.64563],[123.851271,9.645693],[123.851253,9.645725],[123.851282,9.645759],[123.851311,9.645727],[123.8514,9.64571],[123.851412,9.645817],[123.851449,9.645843],[123.851425,9.645895],[123.85127,9.64588],[123.851173,9.646042],[123.851333,9.646168],[123.85134,9.646234],[123.85127,9.64643],[123.851443,9.646513],[123.8515,9.64658],[123.851463,9.646644],[123.851352,9.646591],[123.851346,9.64668],[123.85131,9.64672],[123.851458,9.646826],[123.85145,9.64688],[123.851397,9.646934],[123.851332,9.646939],[123.851391,9.647012],[123.85138,9.64705],[123.85121,9.64712],[123.85105,9.64708],[123.85094,9.6472],[123.850998,9.647295],[123.851056,9.64732],[123.851061,9.647399],[123.850854,9.647595],[123.850959,9.647673],[123.850898,9.647987],[123.850915,9.647996],[123.85085,9.64818],[123.850691,9.64818],[123.850667,9.648255],[123.85053,9.648291],[123.85056,9.6485],[123.850543,9.648525],[123.850406,9.648569],[123.846672,9.648331],[123.846554,9.64835],[123.846541,9.648524],[123.846499,9.648526],[123.845899,9.648411],[123.844402,9.650717],[123.84505,9.65113],[123.84625,9.64928],[123.846531,9.649197],[123.84705,9.64924]]],[[[123.849479,9.650896],[123.849422,9.650982],[123.849479,9.650981],[123.849479,9.650896]]],[[[123.84905,9.65114],[123.84896,9.65145],[123.8491,9.65152],[123.84904,9.651887],[123.849117,9.651887],[123.849116,9.651525],[123.849298,9.651524],[123.849298,9.651163],[123.84923,9.65121],[123.84905,9.65114]]],[[[123.848935,9.652005],[123.848884,9.652068],[123.848935,9.652068],[123.848935,9.652005]]],[[[123.848675,9.65243],[123.848754,9.65243],[123.848754,9.65235],[123.848675,9.65243]]],[[[123.848573,9.652792],[123.848572,9.652636],[123.8485,9.65278],[123.848573,9.652792]]],[[[123.848312,9.652974],[123.848391,9.652974],[123.84839,9.652874],[123.84834,9.652881],[123.848312,9.652974]]],[[[123.848209,9.653088],[123.848167,9.653155],[123.848209,9.653155],[123.848209,9.653088]]],[[[123.856321,9.689491],[123.856321,9.68931],[123.856138,9.689311],[123.856137,9.688768],[123.855955,9.688768],[123.855953,9.688226],[123.856136,9.688225],[123.856135,9.688044],[123.856317,9.688044],[123.856317,9.687863],[123.85814,9.687859],[123.85814,9.687678],[123.858322,9.687677],[123.858322,9.687858],[123.858687,9.687857],[123.858687,9.688038],[123.859052,9.688037],[123.859052,9.688218],[123.859599,9.688217],[123.859598,9.687855],[123.859416,9.687855],[123.859414,9.686951],[123.859231,9.686951],[123.859229,9.685866],[123.859046,9.685867],[123.859046,9.685686],[123.858864,9.685686],[123.858862,9.685144],[123.859045,9.685143],[123.859044,9.684781],[123.859226,9.684781],[123.859225,9.6846],[123.859408,9.6846],[123.859407,9.684238],[123.859589,9.684237],[123.859589,9.684057],[123.859771,9.684056],[123.859771,9.683875],[123.859953,9.683875],[123.859951,9.683332],[123.859769,9.683333],[123.859767,9.682609],[123.859585,9.68261],[123.859582,9.681524],[123.8594,9.681525],[123.8594,9.681344],[123.859217,9.681344],[123.859218,9.681525],[123.859035,9.681526],[123.859036,9.681707],[123.858854,9.681707],[123.858854,9.681888],[123.858672,9.681888],[123.858675,9.683154],[123.858493,9.683155],[123.858494,9.683698],[123.858312,9.683698],[123.858313,9.68406],[123.85813,9.68406],[123.858137,9.686773],[123.85832,9.686773],[123.858321,9.687316],[123.858139,9.687316],[123.858139,9.687497],[123.856863,9.6875],[123.856134,9.687502],[123.856133,9.687321],[123.855586,9.687322],[123.855586,9.687141],[123.855404,9.687142],[123.855403,9.686961],[123.855221,9.686962],[123.85522,9.686419],[123.855037,9.686419],[123.855036,9.686058],[123.854854,9.686058],[123.854853,9.685696],[123.854671,9.685697],[123.85467,9.685335],[123.854488,9.685335],[123.854486,9.684793],[123.854304,9.684793],[123.854303,9.684432],[123.854121,9.684432],[123.854119,9.683889],[123.853937,9.68389],[123.853936,9.683347],[123.853753,9.683348],[123.853752,9.682805],[123.85357,9.682805],[123.853568,9.682263],[123.853386,9.682263],[123.853385,9.681902],[123.853203,9.681902],[123.853202,9.68154],[123.85302,9.681541],[123.853019,9.681179],[123.852836,9.681179],[123.852836,9.680818],[123.852653,9.680818],[123.852653,9.680637],[123.852471,9.680638],[123.85247,9.680457],[123.852288,9.680457],[123.852287,9.680096],[123.852105,9.680096],[123.852104,9.679915],[123.851922,9.679916],[123.851921,9.679735],[123.851739,9.679735],[123.851739,9.679554],[123.851556,9.679555],[123.851556,9.679374],[123.851374,9.679374],[123.851373,9.679013],[123.85119,9.679013],[123.851189,9.678289],[123.851006,9.67829],[123.851005,9.677747],[123.850823,9.677748],[123.850821,9.677024],[123.851003,9.677024],[123.850999,9.675215],[123.851181,9.675215],[123.851176,9.673225],[123.850994,9.673225],[123.850993,9.673045],[123.850811,9.673045],[123.85081,9.672864],[123.850628,9.672865],[123.850627,9.672503],[123.850445,9.672503],[123.850444,9.672322],[123.850262,9.672323],[123.850262,9.672142],[123.850079,9.672142],[123.850079,9.671962],[123.849714,9.671962],[123.849714,9.671782],[123.849349,9.671783],[123.849349,9.671602],[123.849167,9.671602],[123.849166,9.671421],[123.848984,9.671422],[123.848983,9.671241],[123.848801,9.671241],[123.848801,9.67106],[123.848618,9.671061],[123.848618,9.67088],[123.848436,9.67088],[123.848435,9.6707],[123.848253,9.6707],[123.848252,9.670519],[123.847888,9.67052],[123.847887,9.670339],[123.847523,9.67034],[123.847522,9.670159],[123.84734,9.67016],[123.84734,9.669979],[123.846975,9.66998],[123.846975,9.669799],[123.846792,9.669799],[123.846791,9.669437],[123.846609,9.669438],[123.846609,9.669257],[123.846426,9.669257],[123.846426,9.669077],[123.846244,9.669077],[123.846243,9.668896],[123.845879,9.668897],[123.845878,9.668716],[123.845514,9.668717],[123.845513,9.668536],[123.845148,9.668537],[123.845147,9.667994],[123.844965,9.667995],[123.844964,9.667633],[123.844782,9.667634],[123.844781,9.667453],[123.844417,9.667454],[123.844416,9.667273],[123.844234,9.667273],[123.844232,9.666346],[123.844139,9.666718],[123.84404,9.66688],[123.844061,9.667098],[123.844004,9.667246],[123.844,9.6674],[123.844355,9.667761],[123.844538,9.667785],[123.84467,9.66784],[123.84479,9.66796],[123.844836,9.668105],[123.844813,9.668127],[123.844853,9.668389],[123.844811,9.668717],[123.84512,9.66903],[123.845174,9.669188],[123.84529,9.66912],[123.84539,9.66924],[123.84571,9.66928],[123.845715,9.669345],[123.845668,9.669443],[123.845583,9.669492],[123.845532,9.669582],[123.845596,9.669619],[123.845671,9.669741],[123.845726,9.669777],[123.84579,9.6699],[123.84577,9.67014],[123.845492,9.669919],[123.845468,9.669862],[123.84535,9.669923],[123.84537,9.67007],[123.84545,9.67009],[123.845454,9.670478],[123.845352,9.670589],[123.845415,9.670887],[123.84535,9.67142],[123.845462,9.67146],[123.84549,9.6715],[123.84536,9.67153],[123.845335,9.671609],[123.845395,9.67166],[123.845369,9.671733],[123.845453,9.671993],[123.845471,9.672227],[123.845413,9.672268],[123.84546,9.672305],[123.845471,9.67241],[123.845682,9.672462],[123.84559,9.672615],[123.845484,9.672681],[123.84568,9.67294],[123.8457,9.67321],[123.845854,9.67322],[123.845904,9.673266],[123.84595,9.67341],[123.846138,9.673423],[123.846156,9.673386],[123.84624,9.67343],[123.846306,9.673258],[123.846466,9.673387],[123.846496,9.673324],[123.846597,9.673328],[123.846657,9.673275],[123.846703,9.673301],[123.846741,9.673243],[123.846807,9.673261],[123.846937,9.673209],[123.846817,9.672908],[123.8469,9.67284],[123.846963,9.672998],[123.847006,9.673024],[123.847002,9.673086],[123.847083,9.673111],[123.847052,9.67319],[123.84725,9.67322],[123.84756,9.67352],[123.847657,9.673544],[123.847677,9.673581],[123.847791,9.673636],[123.8478,9.67373],[123.84795,9.67375],[123.848021,9.673656],[123.848141,9.673607],[123.848266,9.673667],[123.848325,9.673546],[123.848361,9.673575],[123.848316,9.673613],[123.84831,9.67371],[123.848507,9.673685],[123.848614,9.673611],[123.848703,9.673609],[123.84898,9.673463],[123.84908,9.67345],[123.849068,9.673495],[123.84898,9.673524],[123.84877,9.67367],[123.848773,9.673793],[123.84858,9.67377],[123.848543,9.67397],[123.8486,9.67403],[123.848741,9.673858],[123.84877,9.673878],[123.848791,9.674086],[123.849061,9.674026],[123.849173,9.674129],[123.849836,9.674019],[123.849852,9.673994],[123.849896,9.674009],[123.850072,9.673978],[123.85011,9.67414],[123.84961,9.674178],[123.849509,9.674234],[123.849424,9.674196],[123.84932,9.674205],[123.8493,9.67433],[123.849224,9.674317],[123.849195,9.674281],[123.849209,9.674262],[123.84914,9.67421],[123.848963,9.67419],[123.849019,9.674304],[123.84888,9.67432],[123.848866,9.674403],[123.8489,9.674499],[123.84884,9.67455],[123.84866,9.67436],[123.848572,9.674392],[123.84858,9.67452],[123.84848,9.67453],[123.848378,9.674368],[123.848402,9.674323],[123.84836,9.67421],[123.84814,9.67409],[123.848069,9.674171],[123.847961,9.674212],[123.84795,9.674176],[123.847999,9.674113],[123.84794,9.674099],[123.84786,9.67403],[123.847881,9.674104],[123.847781,9.674206],[123.847773,9.674248],[123.84772,9.674274],[123.847737,9.674382],[123.847715,9.674474],[123.847737,9.674521],[123.84771,9.67467],[123.84763,9.674615],[123.847645,9.67454],[123.847586,9.67443],[123.847396,9.674313],[123.84725,9.67415],[123.84701,9.67416],[123.84696,9.67424],[123.847009,9.674387],[123.847085,9.674404],[123.847162,9.674532],[123.847263,9.674599],[123.847312,9.674673],[123.847341,9.674951],[123.847414,9.675009],[123.847473,9.675105],[123.847412,9.675249],[123.847585,9.675255],[123.847624,9.675222],[123.847665,9.675258],[123.84775,9.67526],[123.847772,9.674966],[123.847796,9.674927],[123.847838,9.674937],[123.847932,9.675107],[123.847957,9.675035],[123.847999,9.675019],[123.84816,9.67544],[123.848323,9.675584],[123.848243,9.675657],[123.848652,9.675999],[123.848718,9.675979],[123.848771,9.675922],[123.848788,9.675958],[123.84891,9.67592],[123.848897,9.675838],[123.848919,9.67579],[123.848946,9.67579],[123.848992,9.67591],[123.849065,9.675886],[123.849223,9.675548],[123.849272,9.675497],[123.84958,9.67549],[123.84969,9.67564],[123.84986,9.67549],[123.849995,9.6757],[123.849946,9.67576],[123.84989,9.67575],[123.84981,9.67579],[123.84998,9.67597],[123.849936,9.676023],[123.849858,9.675991],[123.84975,9.67601],[123.849807,9.676082],[123.849875,9.676106],[123.84986,9.676153],[123.849818,9.676167],[123.84969,9.67613],[123.84985,9.67642],[123.849944,9.676414],[123.849992,9.676451],[123.850122,9.676479],[123.850225,9.676418],[123.850343,9.676232],[123.850322,9.676101],[123.850353,9.676066],[123.850455,9.676092],[123.85049,9.67613],[123.850486,9.676215],[123.850442,9.676249],[123.85036,9.67645],[123.850508,9.676392],[123.850539,9.676435],[123.850691,9.6764],[123.850722,9.676421],[123.85072,9.676521],[123.850649,9.676613],[123.85055,9.67688],[123.850667,9.676967],[123.850713,9.676965],[123.850715,9.676998],[123.850384,9.677122],[123.850384,9.677181],[123.850259,9.677274],[123.84993,9.677302],[123.849854,9.67736],[123.849755,9.677324],[123.849695,9.677453],[123.849762,9.677548],[123.849752,9.677622],[123.849818,9.677755],[123.849793,9.677842],[123.849669,9.677864],[123.849622,9.677828],[123.84951,9.67782],[123.849182,9.677941],[123.84928,9.67801],[123.8492,9.6782],[123.849248,9.678237],[123.84925,9.67829],[123.849132,9.678494],[123.84923,9.67878],[123.849312,9.6788],[123.849213,9.678901],[123.849407,9.678911],[123.849452,9.678947],[123.84922,9.67909],[123.84949,9.67925],[123.8495,9.67943],[123.849604,9.679516],[123.849552,9.679588],[123.84977,9.67969],[123.84976,9.67984],[123.850214,9.680071],[123.85027,9.680074],[123.850313,9.680118],[123.850709,9.68005],[123.85073,9.679779],[123.850696,9.67967],[123.850498,9.679574],[123.85049,9.67946],[123.850365,9.679445],[123.85031,9.67941],[123.850288,9.679243],[123.85032,9.67885],[123.850362,9.678852],[123.850513,9.678977],[123.850916,9.679485],[123.850958,9.679505],[123.850997,9.679586],[123.851088,9.679579],[123.851095,9.679622],[123.851136,9.679638],[123.85115,9.679568],[123.85121,9.679499],[123.851272,9.679431],[123.85132,9.67943],[123.851361,9.679706],[123.85167,9.67997],[123.851574,9.680068],[123.851775,9.68026],[123.85174,9.68046],[123.851469,9.680532],[123.851325,9.680689],[123.85117,9.6807],[123.851141,9.680843],[123.851089,9.680914],[123.850836,9.681168],[123.850713,9.681242],[123.85072,9.68139],[123.85099,9.68173],[123.851236,9.681875],[123.851321,9.68199],[123.85137,9.681941],[123.851463,9.681964],[123.85151,9.681922],[123.85163,9.68195],[123.85167,9.68187],[123.85175,9.68194],[123.851682,9.682071],[123.851741,9.682188],[123.851824,9.682523],[123.85187,9.68261],[123.851971,9.682592],[123.852122,9.682688],[123.852132,9.682739],[123.852101,9.682746],[123.85207,9.68284],[123.85212,9.68292],[123.852191,9.682886],[123.8523,9.682909],[123.85236,9.68282],[123.852422,9.68289],[123.8525,9.682841],[123.85263,9.682846],[123.85267,9.68293],[123.852708,9.682844],[123.85277,9.682809],[123.852803,9.682846],[123.852809,9.682997],[123.85299,9.68311],[123.853337,9.682933],[123.8534,9.682851],[123.853471,9.682851],[123.853546,9.682804],[123.853591,9.682825],[123.853615,9.683151],[123.853565,9.683228],[123.853461,9.68327],[123.85366,9.68327],[123.85367,9.68346],[123.85361,9.683484],[123.853485,9.683472],[123.85364,9.68358],[123.853603,9.683809],[123.853684,9.684034],[123.853625,9.684143],[123.85381,9.68429],[123.85383,9.684447],[123.85392,9.68446],[123.854014,9.684534],[123.85436,9.68504],[123.854354,9.685083],[123.854262,9.685118],[123.85428,9.68556],[123.854375,9.685787],[123.854567,9.685812],[123.8546,9.68584],[123.85455,9.68594],[123.854832,9.686335],[123.854903,9.686545],[123.85482,9.6867],[123.85488,9.686841],[123.854801,9.686899],[123.854941,9.687066],[123.854824,9.68713],[123.854822,9.687216],[123.85499,9.68737],[123.85502,9.68756],[123.855184,9.687567],[123.85513,9.6878],[123.855255,9.687947],[123.85524,9.68806],[123.85534,9.68816],[123.85548,9.68807],[123.85557,9.6877],[123.855712,9.687587],[123.856064,9.68777],[123.85613,9.687897],[123.856112,9.687958],[123.85601,9.68807],[123.855786,9.688153],[123.855758,9.688124],[123.855806,9.688039],[123.85582,9.68794],[123.85568,9.68796],[123.855622,9.688185],[123.855491,9.688319],[123.855499,9.688423],[123.855531,9.688475],[123.85549,9.68869],[123.85554,9.688747],[123.85566,9.6887],[123.855775,9.688828],[123.855694,9.688978],[123.85559,9.68892],[123.855452,9.689019],[123.8555,9.68921],[123.855724,9.689418],[123.855722,9.68945],[123.855642,9.68952],[123.855739,9.689788],[123.855825,9.689749],[123.856064,9.689776],[123.85648,9.68996],[123.85629,9.69015],[123.856333,9.690235],[123.85623,9.69049],[123.85631,9.690554],[123.85632,9.69067],[123.85648,9.69073],[123.856482,9.690874],[123.856457,9.690938],[123.856507,9.690938],[123.856507,9.690757],[123.856689,9.690756],[123.856688,9.690394],[123.856506,9.690395],[123.856503,9.689491],[123.856321,9.689491]]],[[[123.855898,9.697059],[123.856081,9.697059],[123.856076,9.69525],[123.855894,9.695251],[123.855891,9.694376],[123.855969,9.694376],[123.855968,9.694195],[123.855786,9.694195],[123.855785,9.693652],[123.855967,9.693652],[123.855966,9.693261],[123.856071,9.693261],[123.856071,9.693109],[123.856148,9.693109],[123.856147,9.692566],[123.856329,9.692566],[123.856328,9.692271],[123.85629,9.69233],[123.85584,9.69267],[123.85575,9.69295],[123.855863,9.693008],[123.85587,9.693058],[123.85595,9.69313],[123.85591,9.69331],[123.855863,9.693333],[123.855753,9.6933],[123.855727,9.693395],[123.855541,9.693518],[123.85544,9.69355],[123.855504,9.693766],[123.855522,9.693975],[123.855508,9.69403],[123.855451,9.694072],[123.855489,9.694158],[123.855473,9.694262],[123.85544,9.69428],[123.855282,9.694202],[123.855221,9.694283],[123.85526,9.69443],[123.855414,9.694491],[123.855353,9.694556],[123.85526,9.69457],[123.85526,9.69467],[123.855372,9.69464],[123.85541,9.69466],[123.8553,9.69478],[123.855181,9.694772],[123.855221,9.694969],[123.85535,9.69491],[123.855364,9.694999],[123.855305,9.695073],[123.855261,9.695055],[123.855164,9.695103],[123.855162,9.695273],[123.85504,9.69521],[123.855094,9.695335],[123.85507,9.69542],[123.855173,9.695483],[123.855092,9.695578],[123.855153,9.695604],[123.85514,9.695701],[123.85518,9.6958],[123.85508,9.69584],[123.854899,9.695694],[123.854882,9.69581],[123.855071,9.695894],[123.855044,9.695933],[123.854992,9.69592],[123.854888,9.695965],[123.854819,9.695922],[123.854761,9.696023],[123.85483,9.696189],[123.854921,9.696024],[123.854961,9.696038],[123.854957,9.69621],[123.854863,9.696371],[123.854947,9.696389],[123.85497,9.69642],[123.85494,9.696599],[123.855043,9.696561],[123.855051,9.69664],[123.855137,9.696565],[123.85514,9.696708],[123.855178,9.69669],[123.855206,9.696804],[123.855283,9.696907],[123.855251,9.696991],[123.855339,9.697029],[123.855375,9.696927],[123.85556,9.69703],[123.85538,9.69723],[123.855184,9.697054],[123.855227,9.697149],[123.855223,9.697302],[123.855442,9.697472],[123.85549,9.69754],[123.85543,9.69761],[123.855291,9.697484],[123.8552,9.69764],[123.85529,9.69769],[123.855334,9.697647],[123.8554,9.69764],[123.855412,9.697818],[123.855441,9.697847],[123.855482,9.697836],[123.855492,9.697928],[123.855512,9.697879],[123.855539,9.697877],[123.855574,9.698008],[123.85568,9.69803],[123.855787,9.69794],[123.85583,9.69794],[123.855844,9.697982],[123.85576,9.69807],[123.855796,9.698228],[123.85578,9.69852],[123.855902,9.698486],[123.855898,9.697059]]],[[[123.883499,9.625573],[123.883499,9.625523],[123.883171,9.625574],[123.883499,9.625573]]],[[[123.882042,9.625758],[123.882041,9.625645],[123.88171,9.62563],[123.881561,9.625756],[123.882042,9.625758]]],[[[123.881279,9.625783],[123.881072,9.625958],[123.880882,9.626021],[123.880375,9.626003],[123.8799,9.626487],[123.880221,9.626486],[123.88022,9.626305],[123.880585,9.626304],[123.880585,9.626123],[123.881131,9.626122],[123.881131,9.625941],[123.881495,9.62594],[123.881495,9.625777],[123.881279,9.625783]]],[[[123.879857,9.626668],[123.879856,9.626511],[123.8798,9.626511],[123.879518,9.626552],[123.879302,9.626697],[123.879217,9.626713],[123.87951,9.62613],[123.87966,9.62602],[123.879543,9.625988],[123.87949,9.62594],[123.879196,9.625955],[123.879001,9.626002],[123.878721,9.625981],[123.8785,9.62614],[123.87851,9.626242],[123.878333,9.626488],[123.878305,9.626491],[123.87828,9.62641],[123.878339,9.62632],[123.878191,9.626261],[123.878014,9.626427],[123.87798,9.62665],[123.877828,9.62667],[123.877641,9.62661],[123.877736,9.62688],[123.877757,9.627052],[123.87763,9.62702],[123.877589,9.626891],[123.87744,9.62691],[123.877548,9.626739],[123.877449,9.626679],[123.87734,9.626554],[123.877344,9.62681],[123.87724,9.62684],[123.877301,9.626923],[123.877353,9.626943],[123.877358,9.62698],[123.87696,9.62732],[123.876952,9.62758],[123.877308,9.627579],[123.877307,9.627398],[123.877854,9.627396],[123.877853,9.627216],[123.8784,9.627214],[123.8784,9.627033],[123.878946,9.627032],[123.878946,9.626851],[123.879493,9.62685],[123.879492,9.626669],[123.879857,9.626668]]],[[[123.86766,9.632487],[123.86766,9.632306],[123.868206,9.632305],[123.868206,9.632124],[123.86857,9.632123],[123.86857,9.631942],[123.868934,9.631941],[123.868934,9.63176],[123.869299,9.631759],[123.869298,9.631578],[123.869663,9.631577],[123.869662,9.631396],[123.870209,9.631395],[123.870208,9.631214],[123.870755,9.631213],[123.870755,9.631032],[123.871302,9.631031],[123.871301,9.63085],[123.87203,9.630848],[123.87203,9.630667],[123.873123,9.630664],[123.873123,9.630483],[123.873305,9.630483],[123.873304,9.630121],[123.873486,9.630121],[123.873485,9.629578],[123.873667,9.629578],[123.873667,9.629397],[123.873849,9.629396],[123.873849,9.629215],[123.874031,9.629215],[123.87403,9.629034],[123.874213,9.629034],[123.874212,9.628853],[123.874395,9.628852],[123.874394,9.628671],[123.874576,9.628671],[123.874576,9.62849],[123.874758,9.62849],[123.874758,9.628309],[123.875122,9.628308],[123.875122,9.628127],[123.875486,9.628126],[123.875486,9.627945],[123.876215,9.627943],[123.876214,9.627762],[123.876761,9.627761],[123.876761,9.627687],[123.8767,9.627673],[123.87662,9.627501],[123.87621,9.62737],[123.876094,9.627428],[123.876062,9.627564],[123.875823,9.627612],[123.87572,9.62775],[123.875543,9.627475],[123.87517,9.627543],[123.87503,9.62754],[123.874987,9.627473],[123.87508,9.62736],[123.875088,9.627156],[123.874981,9.626913],[123.874829,9.62696],[123.874648,9.626953],[123.874359,9.626992],[123.8743,9.62707],[123.874269,9.626998],[123.87431,9.62693],[123.874184,9.626823],[123.873995,9.626842],[123.873976,9.626902],[123.873902,9.626919],[123.8738,9.627],[123.87373,9.62692],[123.873493,9.627111],[123.873418,9.627033],[123.87336,9.62711],[123.87314,9.62702],[123.873011,9.62726],[123.87279,9.62746],[123.87287,9.6277],[123.872672,9.627759],[123.87269,9.62788],[123.87239,9.628211],[123.872371,9.628361],[123.872562,9.628411],[123.872594,9.628478],[123.872511,9.628555],[123.87242,9.62859],[123.87227,9.62852],[123.872106,9.628142],[123.872309,9.628013],[123.872406,9.627982],[123.872381,9.627897],[123.872436,9.627874],[123.872477,9.627704],[123.87232,9.627732],[123.87223,9.62759],[123.872196,9.627649],[123.872217,9.627691],[123.87216,9.62771],[123.872083,9.627716],[123.871877,9.627619],[123.87179,9.6274],[123.871869,9.627367],[123.87181,9.627211],[123.871859,9.627188],[123.871838,9.627132],[123.871829,9.627113],[123.871639,9.627195],[123.871572,9.627092],[123.871603,9.627071],[123.871531,9.626843],[123.871295,9.627003],[123.87146,9.6273],[123.871345,9.627371],[123.871371,9.627419],[123.87149,9.62735],[123.871561,9.627503],[123.871431,9.62757],[123.87157,9.62778],[123.871532,9.627823],[123.871628,9.627938],[123.871693,9.627905],[123.871715,9.627944],[123.871672,9.62804],[123.871802,9.628001],[123.871974,9.6284],[123.871767,9.628553],[123.871607,9.628622],[123.871613,9.628647],[123.871375,9.628747],[123.871659,9.629426],[123.87198,9.62932],[123.8719,9.62954],[123.871524,9.629749],[123.871495,9.629808],[123.87138,9.62983],[123.87133,9.63006],[123.871232,9.629943],[123.871137,9.629755],[123.87106,9.62974],[123.870531,9.63],[123.870821,9.63064],[123.870771,9.630744],[123.87053,9.63073],[123.870407,9.630815],[123.8701,9.63095],[123.870079,9.631164],[123.869998,9.631171],[123.869963,9.631104],[123.869833,9.631044],[123.86973,9.63131],[123.86959,9.6313],[123.86948,9.63139],[123.869378,9.631272],[123.86913,9.631261],[123.869046,9.631474],[123.868564,9.631574],[123.868446,9.631561],[123.868361,9.631361],[123.868146,9.631483],[123.868126,9.631449],[123.868058,9.631506],[123.86794,9.631512],[123.867882,9.631696],[123.867907,9.631766],[123.86783,9.63186],[123.867754,9.631762],[123.86766,9.63152],[123.86718,9.63174],[123.86721,9.63184],[123.86683,9.63207],[123.866777,9.632221],[123.86672,9.63228],[123.866615,9.63229],[123.866522,9.63226],[123.86648,9.6322],[123.86634,9.63231],[123.866251,9.632255],[123.866272,9.63234],[123.86612,9.63248],[123.866343,9.632726],[123.866366,9.632718],[123.866412,9.632796],[123.866276,9.632913],[123.866197,9.632905],[123.866105,9.633064],[123.866044,9.633102],[123.866027,9.633395],[123.866204,9.633395],[123.866204,9.633214],[123.866386,9.633213],[123.866385,9.633033],[123.866568,9.633032],[123.866567,9.632851],[123.866932,9.63285],[123.866931,9.632669],[123.867296,9.632669],[123.867295,9.632488],[123.86766,9.632487]]],[[[123.86575,9.63357],[123.865736,9.633577],[123.865748,9.633577],[123.86575,9.63357]]],[[[123.865476,9.633606],[123.865471,9.633602],[123.86539,9.63365],[123.865415,9.633759],[123.865476,9.633758],[123.865476,9.633606]]],[[[123.864748,9.634122],[123.864748,9.634014],[123.86472,9.63402],[123.864698,9.634111],[123.864748,9.634122]]],[[[123.86303,9.63484],[123.863023,9.63485],[123.863066,9.63485],[123.86303,9.63484]]],[[[123.862391,9.635032],[123.862563,9.635032],[123.86253,9.63498],[123.862399,9.635002],[123.862391,9.635032]]],[[[123.862129,9.635178],[123.862075,9.635214],[123.862199,9.635214],[123.862185,9.635171],[123.862129,9.635178]]],[[[123.861926,9.635214],[123.862018,9.635214],[123.861983,9.635202],[123.861926,9.635214]]],[[[123.861815,9.635338],[123.861763,9.635396],[123.861835,9.635395],[123.861815,9.635338]]],[[[123.861203,9.635546],[123.861162,9.635514],[123.86108,9.63534],[123.86102,9.63537],[123.86109,9.635539],[123.861031,9.635578],[123.861471,9.635577],[123.861471,9.635534],[123.861203,9.635546]]],[[[123.860737,9.635631],[123.860739,9.635661],[123.860705,9.635642],[123.86057,9.63573],[123.86049,9.635622],[123.860462,9.635761],[123.860924,9.635759],[123.860924,9.635579],[123.860948,9.635578],[123.860912,9.635514],[123.860737,9.635631]]],[[[123.860289,9.635942],[123.860378,9.635942],[123.860378,9.635801],[123.8603,9.63578],[123.860289,9.635942]]],[[[123.859937,9.63592],[123.859911,9.63588],[123.85983,9.63588],[123.859859,9.635958],[123.85992,9.63594],[123.859932,9.635978],[123.859854,9.636017],[123.859936,9.636066],[123.85993,9.636103],[123.859868,9.636124],[123.860014,9.636123],[123.860013,9.635943],[123.860051,9.635942],[123.860016,9.635883],[123.859937,9.63592]]],[[[123.859399,9.636143],[123.859405,9.636224],[123.859293,9.636487],[123.859468,9.636487],[123.859468,9.636306],[123.85965,9.636305],[123.859649,9.636124],[123.859829,9.636124],[123.859827,9.636108],[123.859577,9.636127],[123.859399,9.636143]]],[[[123.858558,9.637021],[123.858508,9.637032],[123.858558,9.637031],[123.858558,9.637021]]],[[[123.858376,9.637164],[123.858327,9.637213],[123.858376,9.637213],[123.858376,9.637164]]],[[[123.85781,9.637432],[123.85783,9.637558],[123.85783,9.637443],[123.85781,9.637432]]],[[[123.858852,9.680984],[123.858669,9.680984],[123.858668,9.680622],[123.858486,9.680623],[123.858484,9.679899],[123.858302,9.6799],[123.858302,9.679719],[123.858119,9.679719],[123.858116,9.678272],[123.857933,9.678273],[123.857932,9.677549],[123.857749,9.67755],[123.857746,9.676103],[123.857563,9.676103],[123.857563,9.675922],[123.857198,9.675923],[123.8572,9.676466],[123.857017,9.676466],[123.857023,9.678637],[123.856841,9.678637],[123.856844,9.679903],[123.856661,9.679904],[123.856662,9.680266],[123.856845,9.680265],[123.856845,9.680446],[123.856663,9.680446],[123.856664,9.680808],[123.857028,9.680807],[123.857029,9.680988],[123.857211,9.680988],[123.857212,9.681169],[123.857394,9.681168],[123.857395,9.68153],[123.857577,9.681529],[123.857577,9.68171],[123.85776,9.68171],[123.85776,9.681891],[123.858125,9.68189],[123.858124,9.681709],[123.858307,9.681708],[123.858306,9.681528],[123.858488,9.681527],[123.858488,9.681346],[123.85867,9.681346],[123.85867,9.681165],[123.858852,9.681164],[123.858852,9.680984]]],[[[123.860148,9.688939],[123.859966,9.688939],[123.859965,9.688758],[123.859601,9.688759],[123.859602,9.689302],[123.85942,9.689302],[123.859423,9.690388],[123.860881,9.690384],[123.86088,9.689841],[123.860697,9.689842],[123.860696,9.68948],[123.860514,9.689481],[123.860514,9.6893],[123.860331,9.6893],[123.860331,9.689119],[123.860148,9.68912],[123.860148,9.688939]]],[[[123.85571,9.692679],[123.85583,9.69252],[123.85585,9.69238],[123.855756,9.69226],[123.855763,9.692161],[123.85583,9.69207],[123.856262,9.691929],[123.856389,9.692003],[123.856454,9.692003],[123.856461,9.69207],[123.856366,9.692204],[123.85651,9.692204],[123.856508,9.69148],[123.856326,9.691481],[123.856325,9.691128],[123.856283,9.691182],[123.856219,9.69116],[123.85615,9.69118],[123.856142,9.691354],[123.85608,9.69159],[123.856002,9.691553],[123.85588,9.691344],[123.85551,9.6913],[123.855215,9.691607],[123.855205,9.69166],[123.855163,9.691661],[123.85502,9.69181],[123.855104,9.691961],[123.85521,9.69198],[123.855193,9.69203],[123.85513,9.69206],[123.85513,9.692253],[123.85503,9.6923],[123.855064,9.692412],[123.855125,9.692492],[123.85511,9.6926],[123.855219,9.692728],[123.85535,9.6927],[123.855439,9.692807],[123.855524,9.692673],[123.855576,9.69264],[123.85571,9.692679]]],[[[123.858625,9.693978],[123.858624,9.693616],[123.858442,9.693616],[123.858441,9.693436],[123.858077,9.693437],[123.858078,9.693979],[123.858625,9.693978]]],[[[123.856802,9.694163],[123.856804,9.694706],[123.856986,9.694705],[123.856987,9.694886],[123.857169,9.694886],[123.857167,9.694162],[123.857349,9.694162],[123.857349,9.693981],[123.856984,9.693982],[123.856985,9.694163],[123.856802,9.694163]]],[[[123.860082,9.693251],[123.859717,9.693252],[123.859717,9.693432],[123.859353,9.693433],[123.859354,9.693795],[123.859536,9.693795],[123.859538,9.694518],[123.858991,9.694519],[123.85899,9.694339],[123.858626,9.69434],[123.858627,9.694701],[123.858809,9.694701],[123.858811,9.695424],[123.858993,9.695424],[123.858994,9.695605],[123.859358,9.695604],[123.859356,9.69488],[123.859721,9.694879],[123.859721,9.694699],[123.859903,9.694698],[123.859902,9.694336],[123.860084,9.694336],[123.860083,9.693974],[123.860266,9.693974],[123.860265,9.693793],[123.860448,9.693792],[123.860447,9.693611],[123.860812,9.693611],[123.860812,9.693791],[123.860994,9.693791],[123.860995,9.693972],[123.861177,9.693971],[123.861178,9.694152],[123.86136,9.694152],[123.86136,9.694333],[123.862272,9.69433],[123.862274,9.695235],[123.862457,9.695234],[123.862463,9.697586],[123.86228,9.697586],[123.862283,9.69849],[123.8621,9.698491],[123.862101,9.698672],[123.861554,9.698673],[123.861554,9.698854],[123.859002,9.69886],[123.857908,9.698863],[123.857908,9.698682],[123.856085,9.698687],[123.856084,9.698506],[123.855943,9.698506],[123.855983,9.69861],[123.85599,9.69878],[123.85609,9.69888],[123.85584,9.699],[123.855358,9.699774],[123.855701,9.699773],[123.85579,9.69964],[123.855653,9.69955],[123.855676,9.699518],[123.85564,9.69948],[123.85591,9.69909],[123.85623,9.69895],[123.856267,9.698958],[123.85626,9.69908],[123.85637,9.699089],[123.856387,9.698967],[123.856622,9.698936],[123.856982,9.69899],[123.857002,9.699079],[123.85698,9.69916],[123.85713,9.69925],[123.85701,9.69936],[123.857171,9.69943],[123.857288,9.699407],[123.85736,9.69944],[123.857489,9.699332],[123.857545,9.699319],[123.857563,9.699271],[123.857588,9.69929],[123.857681,9.699228],[123.857838,9.699266],[123.857841,9.699313],[123.858009,9.699399],[123.858025,9.699358],[123.85817,9.69937],[123.858145,9.699289],[123.858254,9.69922],[123.858326,9.69927],[123.858353,9.699324],[123.858251,9.69955],[123.85836,9.69962],[123.85825,9.69972],[123.85834,9.69974],[123.85835,9.699847],[123.858381,9.699832],[123.858428,9.69986],[123.85875,9.6999],[123.85886,9.699827],[123.858915,9.699898],[123.8589,9.69996],[123.858968,9.700006],[123.859029,9.7],[123.85906,9.70007],[123.859205,9.700028],[123.859389,9.700166],[123.859444,9.700117],[123.859541,9.700138],[123.85991,9.70006],[123.860144,9.700106],[123.860203,9.700269],[123.860342,9.700191],[123.86049,9.7002],[123.860771,9.699896],[123.86099,9.70002],[123.861182,9.699887],[123.861236,9.699913],[123.861823,9.699655],[123.862066,9.699681],[123.862132,9.699717],[123.86231,9.69959],[123.862371,9.699649],[123.86266,9.69895],[123.86271,9.69862],[123.86321,9.69804],[123.86312,9.69783],[123.86277,9.69768],[123.86268,9.69752],[123.86281,9.69675],[123.86302,9.69653],[123.86362,9.69654],[123.86381,9.69648],[123.86394,9.69634],[123.86386,9.69596],[123.86373,9.69582],[123.86353,9.69582],[123.86321,9.69598],[123.86294,9.69594],[123.86288,9.69582],[123.86298,9.69568],[123.86367,9.69552],[123.86375,9.69536],[123.8637,9.69506],[123.86379,9.69482],[123.86432,9.6948],[123.86454,9.69508],[123.86487,9.69507],[123.8649,9.6952],[123.864786,9.695409],[123.865191,9.695408],[123.865191,9.695227],[123.865373,9.695227],[123.865373,9.695046],[123.865555,9.695046],[123.865554,9.694503],[123.865371,9.694503],[123.865371,9.694323],[123.865006,9.694323],[123.865006,9.694143],[123.864824,9.694143],[123.864823,9.693781],[123.86464,9.693782],[123.86464,9.693601],[123.864458,9.693601],[123.864457,9.69342],[123.864093,9.693421],[123.864092,9.693241],[123.862816,9.693244],[123.862816,9.693063],[123.862633,9.693063],[123.862633,9.692882],[123.862451,9.692883],[123.862448,9.691979],[123.862266,9.691979],[123.862265,9.691617],[123.862083,9.691618],[123.862082,9.691437],[123.861718,9.691438],[123.861718,9.691619],[123.861536,9.691619],[123.861536,9.6918],[123.861354,9.6918],[123.861354,9.691981],[123.860807,9.691983],[123.860808,9.692164],[123.860261,9.692165],[123.860261,9.691984],[123.859714,9.691985],[123.859714,9.692166],[123.859896,9.692166],[123.859897,9.692347],[123.860262,9.692346],[123.860262,9.692527],[123.861173,9.692524],[123.861174,9.692705],[123.860809,9.692706],[123.86081,9.692887],[123.860628,9.692887],[123.860628,9.693068],[123.860081,9.69307],[123.860082,9.693251]],[[123.861173,9.692343],[123.861355,9.692343],[123.861356,9.692524],[123.861173,9.692524],[123.861173,9.692343]]]]}}],"metadata":{"hazard":"storm-surge","scenario":"Storm Surge Advisory 4 - peak height above 4 metres","source":"Project NOAH","sourceUrl":"https://huggingface.co/datasets/bettergovph/project-noah-hazard-maps/tree/main/Storm%20Surge/StormSurgeAdvisory4","license":"ODC-ODbL-1.0","retrievedAt":"2026-07-28","transformation":"Clipped to the indicative Tagbilaran City boundary, topology-preserving simplification, six-decimal precision."}}